{"type": "FeatureCollection", "features": [{"type": "Feature", "properties": {"region": "福井市", "prefecture": "福井県"}, "geometry": {"type": "Polygon", "coordinates": [[[136.28728, 36.08275], [136.29226, 36.08291], [136.29241, 36.07882], [136.28842, 36.07574], [136.28148, 36.07393], [136.28455, 36.0687], [136.28448, 36.0632], [136.28638, 36.06154], [136.2864, 36.0562], [136.28841, 36.05587], [136.29337, 36.04975], [136.29697, 36.04971], [136.29727, 36.04614], [136.30697, 36.04438], [136.31366, 36.04113], [136.31852, 36.04182], [136.32207, 36.04956], [136.3289, 36.04835], [136.33545, 36.05261], [136.34063, 36.05299], [136.34615, 36.04259], [136.34606, 36.03972], [136.3508, 36.03657], [136.35657, 36.03617], [136.35999, 36.03396], [136.36756, 36.03351], [136.37574, 36.03952], [136.38429, 36.04708], [136.39017, 36.04786], [136.40745, 36.04594], [136.4133, 36.04249], [136.42561, 36.03979], [136.432, 36.04332], [136.44102, 36.03236], [136.44547, 36.02203], [136.45783, 36.01645], [136.45059, 36.01252], [136.44894, 36.01012], [136.45527, 36.00209], [136.45158, 35.9969], [136.45627, 35.99189], [136.45288, 35.98723], [136.4488, 35.98554], [136.44938, 35.98175], [136.45235, 35.97946], [136.45217, 35.97397], [136.45631, 35.96925], [136.4545, 35.95879], [136.45636, 35.95455], [136.46212, 35.95325], [136.46536, 35.95082], [136.4619, 35.94474], [136.46149, 35.93883], [136.46442, 35.93305], [136.45329, 35.93132], [136.45557, 35.92861], [136.46365, 35.92577], [136.46718, 35.92158], [136.46052, 35.92055], [136.45649, 35.9204], [136.43868, 35.92781], [136.4398, 35.93226], [136.43608, 35.9357], [136.42933, 35.93833], [136.42302, 35.9388], [136.42146, 35.94091], [136.41395, 35.94396], [136.40675, 35.94898], [136.39976, 35.94835], [136.3876, 35.95261], [136.38391, 35.95123], [136.37544, 35.9517], [136.36701, 35.94789], [136.3583, 35.94754], [136.3522, 35.94235], [136.35019, 35.93432], [136.34545, 35.93139], [136.34179, 35.9328], [136.3386, 35.92976], [136.33374, 35.92867], [136.33395, 35.93934], [136.33157, 35.94293], [136.33646, 35.95128], [136.32934, 35.95186], [136.32786, 35.95035], [136.32294, 35.95186], [136.32306, 35.95673], [136.31801, 35.95804], [136.31772, 35.96421], [136.312, 35.96612], [136.30397, 35.96446], [136.30007, 35.96865], [136.29008, 35.974], [136.28257, 35.97176], [136.27485, 35.97215], [136.27113, 35.97797], [136.26265, 35.97881], [136.25938, 35.98042], [136.25454, 35.97932], [136.23888, 35.98346], [136.23209, 35.99067], [136.22383, 35.99046], [136.21874, 35.98464], [136.21517, 35.98338], [136.21512, 35.98042], [136.20994, 35.97737], [136.20759, 35.97088], [136.20378, 35.97525], [136.204, 35.98156], [136.20638, 35.98573], [136.19465, 35.99078], [136.18619, 35.98972], [136.18507, 35.99229], [136.17981, 35.99446], [136.18069, 35.99914], [136.176, 35.99981], [136.16828, 35.99788], [136.16618, 35.99602], [136.15901, 35.99821], [136.15741, 35.99556], [136.1608, 35.99367], [136.15523, 35.99229], [136.13776, 35.99283], [136.13095, 36.00208], [136.12809, 36.00388], [136.12084, 36.00105], [136.11755, 36.00255], [136.11031, 36.00224], [136.09693, 36.00493], [136.09671, 36.0096], [136.08679, 36.01574], [136.08129, 36.01419], [136.08175, 36.0191], [136.07529, 36.02121], [136.07185, 36.0239], [136.07215, 36.02812], [136.06656, 36.02642], [136.06204, 36.02803], [136.05706, 36.02661], [136.05506, 36.01507], [136.05611, 36.01209], [136.05225, 36.01168], [136.04821, 36.00749], [136.04756, 36.00429], [136.03261, 35.99691], [136.03157, 35.99999], [136.02832, 35.99618], [136.02257, 36.00558], [136.01173, 36.01424], [136.01033, 36.01148], [136.00571, 36.01], [136.00349, 36.00544], [136.00467, 35.99945], [136.00248, 35.99687], [136.00404, 35.99101], [136.0088, 35.98776], [136.00224, 35.98636], [135.9962, 35.98269], [135.99072, 35.98284], [135.98403, 35.98492], [135.98556, 35.98778], [135.96936, 35.99227], [135.96437, 35.99751], [135.96812, 36.00094], [135.97209, 36.00153], [135.97501, 36.00468], [135.9792, 36.00516], [135.98213, 36.00868], [135.98557, 36.0089], [135.99756, 36.01918], [136.00496, 36.02951], [136.01031, 36.03294], [136.00969, 36.03691], [136.01208, 36.04709], [136.01631, 36.04899], [136.01534, 36.05273], [136.01895, 36.05688], [136.01922, 36.06479], [136.0214, 36.07144], [136.02614, 36.0728], [136.02424, 36.07575], [136.03056, 36.08644], [136.03079, 36.09354], [136.02842, 36.09524], [136.03229, 36.09726], [136.03784, 36.10461], [136.04078, 36.10482], [136.04862, 36.10983], [136.04924, 36.11811], [136.05314, 36.11972], [136.05687, 36.12919], [136.06205, 36.12988], [136.05991, 36.13174], [136.06704, 36.13235], [136.0726, 36.13553], [136.08518, 36.14527], [136.09337, 36.15322], [136.09539, 36.15771], [136.09039, 36.16053], [136.10003, 36.17289], [136.1073, 36.16943], [136.11961, 36.16577], [136.12604, 36.16277], [136.12549, 36.15798], [136.13035, 36.15865], [136.12864, 36.16264], [136.13283, 36.1655], [136.13532, 36.16953], [136.13809, 36.16994], [136.13821, 36.16327], [136.14788, 36.16341], [136.15155, 36.1669], [136.15918, 36.1622], [136.1623, 36.15809], [136.165, 36.14679], [136.16647, 36.14447], [136.17505, 36.13941], [136.17783, 36.13368], [136.1919, 36.1303], [136.19373, 36.12378], [136.19826, 36.12136], [136.20674, 36.12231], [136.20952, 36.12048], [136.23081, 36.12066], [136.23388, 36.11866], [136.2456, 36.12079], [136.24559, 36.11821], [136.25187, 36.1234], [136.25407, 36.12365], [136.25551, 36.11276], [136.25366, 36.10651], [136.25686, 36.10494], [136.26997, 36.10407], [136.28068, 36.10359], [136.28131, 36.09894], [136.28807, 36.09836], [136.28837, 36.09491], [136.28243, 36.09445], [136.27886, 36.09009], [136.28207, 36.09074], [136.28334, 36.0855], [136.28728, 36.08275]]]}}, {"type": "Feature", "properties": {"region": "福井", "prefecture": "福井県"}, "geometry": {"type": "Polygon", "coordinates": [[[136.39278, 36.12494], [136.39145, 36.1161], [136.39892, 36.11164], [136.39962, 36.10653], [136.4026, 36.10526], [136.40417, 36.0992], [136.39901, 36.09634], [136.39565, 36.09221], [136.3884, 36.0908], [136.38829, 36.08752], [136.40948, 36.08101], [136.42909, 36.07631], [136.43801, 36.07543], [136.43933, 36.06948], [136.43592, 36.06179], [136.43295, 36.05876], [136.43339, 36.0512], [136.43547, 36.0502], [136.432, 36.04332], [136.42561, 36.03979], [136.4133, 36.04249], [136.40745, 36.04594], [136.39017, 36.04786], [136.38429, 36.04708], [136.37574, 36.03952], [136.36756, 36.03351], [136.35999, 36.03396], [136.35657, 36.03617], [136.3508, 36.03657], [136.34606, 36.03972], [136.34615, 36.04259], [136.34063, 36.05299], [136.33545, 36.05261], [136.3289, 36.04835], [136.32207, 36.04956], [136.31852, 36.04182], [136.31366, 36.04113], [136.30697, 36.04438], [136.29727, 36.04614], [136.29697, 36.04971], [136.29337, 36.04975], [136.28841, 36.05587], [136.2864, 36.0562], [136.28638, 36.06154], [136.28448, 36.0632], [136.28455, 36.0687], [136.28148, 36.07393], [136.28842, 36.07574], [136.29241, 36.07882], [136.29226, 36.08291], [136.28728, 36.08275], [136.28334, 36.0855], [136.28207, 36.09074], [136.27886, 36.09009], [136.28243, 36.09445], [136.28837, 36.09491], [136.28807, 36.09836], [136.28131, 36.09894], [136.28068, 36.10359], [136.26997, 36.10407], [136.27617, 36.1114], [136.28137, 36.1135], [136.27984, 36.12082], [136.2853, 36.11957], [136.284, 36.11116], [136.28713, 36.11106], [136.28712, 36.11503], [136.2904, 36.116], [136.29216, 36.11345], [136.29867, 36.11154], [136.29625, 36.10731], [136.30631, 36.10377], [136.32296, 36.10276], [136.32449, 36.1067], [136.33293, 36.10964], [136.33592, 36.11241], [136.34363, 36.11127], [136.34585, 36.11377], [136.35542, 36.11686], [136.36021, 36.12451], [136.36023, 36.12743], [136.37168, 36.13006], [136.37578, 36.12592], [136.38475, 36.12691], [136.39278, 36.12494]]]}}, {"type": "Feature", "properties": {"region": "坂井", "prefecture": "福井県"}, "geometry": {"type": "MultiPolygon", "coordinates": [[[[136.12096, 36.25051], [136.11695, 36.25], [136.12064, 36.25354], [136.12096, 36.25051]]], [[[136.35804, 36.1651], [136.36592, 36.16616], [136.3689, 36.16983], [136.37402, 36.17004], [136.37967, 36.16827], [136.39009, 36.1674], [136.3977, 36.17053], [136.40482, 36.17028], [136.40931, 36.17223], [136.41327, 36.16695], [136.41164, 36.16008], [136.41429, 36.15662], [136.42419, 36.15458], [136.42681, 36.1489], [136.43176, 36.14347], [136.43784, 36.14232], [136.44039, 36.13736], [136.43954, 36.13476], [136.4339, 36.13432], [136.42897, 36.13212], [136.42542, 36.13368], [136.40712, 36.12841], [136.40205, 36.12769], [136.39897, 36.12484], [136.39278, 36.12494], [136.38475, 36.12691], [136.37578, 36.12592], [136.37168, 36.13006], [136.36023, 36.12743], [136.36021, 36.12451], [136.35542, 36.11686], [136.34585, 36.11377], [136.34363, 36.11127], [136.33592, 36.11241], [136.33293, 36.10964], [136.32449, 36.1067], [136.32296, 36.10276], [136.30631, 36.10377], [136.29625, 36.10731], [136.29867, 36.11154], [136.29216, 36.11345], [136.2904, 36.116], [136.28712, 36.11503], [136.28713, 36.11106], [136.284, 36.11116], [136.2853, 36.11957], [136.27984, 36.12082], [136.28137, 36.1135], [136.27617, 36.1114], [136.26997, 36.10407], [136.25686, 36.10494], [136.25366, 36.10651], [136.25551, 36.11276], [136.25407, 36.12365], [136.25187, 36.1234], [136.24559, 36.11821], [136.2456, 36.12079], [136.23388, 36.11866], [136.23081, 36.12066], [136.20952, 36.12048], [136.20674, 36.12231], [136.19826, 36.12136], [136.19373, 36.12378], [136.1919, 36.1303], [136.17783, 36.13368], [136.17505, 36.13941], [136.16647, 36.14447], [136.165, 36.14679], [136.1623, 36.15809], [136.15918, 36.1622], [136.15155, 36.1669], [136.14788, 36.16341], [136.13821, 36.16327], [136.13809, 36.16994], [136.13532, 36.16953], [136.13283, 36.1655], [136.12864, 36.16264], [136.13035, 36.15865], [136.12549, 36.15798], [136.12604, 36.16277], [136.11961, 36.16577], [136.1073, 36.16943], [136.10003, 36.17289], [136.11442, 36.19269], [136.12106, 36.18961], [136.12765, 36.19009], [136.12726, 36.19443], [136.13399, 36.20383], [136.1311, 36.20519], [136.12655, 36.19892], [136.12183, 36.20114], [136.12722, 36.20897], [136.13202, 36.21392], [136.12966, 36.21903], [136.13465, 36.22074], [136.13317, 36.22838], [136.13055, 36.23245], [136.12522, 36.23686], [136.13148, 36.24078], [136.12479, 36.24646], [136.1234, 36.25003], [136.12622, 36.25108], [136.13983, 36.25105], [136.14329, 36.2533], [136.14504, 36.25156], [136.14781, 36.25507], [136.14941, 36.25259], [136.15452, 36.25292], [136.15778, 36.25014], [136.16203, 36.24978], [136.17189, 36.25257], [136.18319, 36.25762], [136.1966, 36.2644], [136.22611, 36.28116], [136.24145, 36.29172], [136.24386, 36.2953], [136.24925, 36.29176], [136.25859, 36.28932], [136.25677, 36.2867], [136.25627, 36.27966], [136.25985, 36.2779], [136.26258, 36.27956], [136.26429, 36.27571], [136.26153, 36.27336], [136.26377, 36.26897], [136.26818, 36.26999], [136.26597, 36.26584], [136.27507, 36.26618], [136.28, 36.26435], [136.28221, 36.26574], [136.28547, 36.26167], [136.29465, 36.26075], [136.30211, 36.25752], [136.30494, 36.25047], [136.30842, 36.24682], [136.3153, 36.24588], [136.31762, 36.24078], [136.31548, 36.2383], [136.31668, 36.23508], [136.32326, 36.23167], [136.32698, 36.23221], [136.3324, 36.22959], [136.32901, 36.2243], [136.33118, 36.21838], [136.32787, 36.2099], [136.3294, 36.20202], [136.33696, 36.19079], [136.33567, 36.18487], [136.33761, 36.18373], [136.34412, 36.17298], [136.3551, 36.16884], [136.35804, 36.1651]]]]}}, {"type": "Feature", "properties": {"region": "奥越", "prefecture": "福井県"}, "geometry": {"type": "Polygon", "coordinates": [[[136.42297, 35.79346], [136.4279, 35.79483], [136.43131, 35.79797], [136.43256, 35.80714], [136.42324, 35.81302], [136.42293, 35.82086], [136.42819, 35.82359], [136.42473, 35.82801], [136.42378, 35.83446], [136.42886, 35.83899], [136.43104, 35.85049], [136.4365, 35.84979], [136.4298, 35.85493], [136.42768, 35.85905], [136.42979, 35.86342], [136.43496, 35.86715], [136.43307, 35.87194], [136.43993, 35.87861], [136.43926, 35.88601], [136.43296, 35.88886], [136.43252, 35.89635], [136.43759, 35.90105], [136.43877, 35.90864], [136.44661, 35.91015], [136.45003, 35.9131], [136.45509, 35.9133], [136.46052, 35.92055], [136.46718, 35.92158], [136.46365, 35.92577], [136.45557, 35.92861], [136.45329, 35.93132], [136.46442, 35.93305], [136.46149, 35.93883], [136.4619, 35.94474], [136.46536, 35.95082], [136.46212, 35.95325], [136.45636, 35.95455], [136.4545, 35.95879], [136.45631, 35.96925], [136.45217, 35.97397], [136.45235, 35.97946], [136.44938, 35.98175], [136.4488, 35.98554], [136.45288, 35.98723], [136.45627, 35.99189], [136.45158, 35.9969], [136.45527, 36.00209], [136.44894, 36.01012], [136.45059, 36.01252], [136.45783, 36.01645], [136.44547, 36.02203], [136.44102, 36.03236], [136.432, 36.04332], [136.43547, 36.0502], [136.43339, 36.0512], [136.43295, 36.05876], [136.43592, 36.06179], [136.43933, 36.06948], [136.43801, 36.07543], [136.42909, 36.07631], [136.40948, 36.08101], [136.38829, 36.08752], [136.3884, 36.0908], [136.39565, 36.09221], [136.39901, 36.09634], [136.40417, 36.0992], [136.4026, 36.10526], [136.39962, 36.10653], [136.39892, 36.11164], [136.39145, 36.1161], [136.39278, 36.12494], [136.39897, 36.12484], [136.40205, 36.12769], [136.40712, 36.12841], [136.42542, 36.13368], [136.42897, 36.13212], [136.4339, 36.13432], [136.43954, 36.13476], [136.44039, 36.13736], [136.44881, 36.14069], [136.45651, 36.13629], [136.46445, 36.13793], [136.47006, 36.14543], [136.47413, 36.14662], [136.47704, 36.15133], [136.48319, 36.15672], [136.48805, 36.15914], [136.49184, 36.15814], [136.49707, 36.14967], [136.50304, 36.14966], [136.5057, 36.14663], [136.51072, 36.14612], [136.52153, 36.15138], [136.52668, 36.14812], [136.53276, 36.14749], [136.54143, 36.15365], [136.54529, 36.15282], [136.55175, 36.1549], [136.5548, 36.15302], [136.56009, 36.15301], [136.56299, 36.14474], [136.56852, 36.14451], [136.57632, 36.14223], [136.58171, 36.13633], [136.58486, 36.13595], [136.59048, 36.13122], [136.59607, 36.13192], [136.60341, 36.12794], [136.60443, 36.12218], [136.61227, 36.11682], [136.61143, 36.11276], [136.61473, 36.10831], [136.62255, 36.10626], [136.63226, 36.09941], [136.64207, 36.09807], [136.64551, 36.09476], [136.65162, 36.09192], [136.65162, 36.08995], [136.65723, 36.08351], [136.65561, 36.07571], [136.65868, 36.06951], [136.66229, 36.06763], [136.66862, 36.06778], [136.67049, 36.06937], [136.67424, 36.06723], [136.67852, 36.07054], [136.6952, 36.0743], [136.70122, 36.0749], [136.7071, 36.07956], [136.71533, 36.08207], [136.72476, 36.08235], [136.73248, 36.08038], [136.73882, 36.08039], [136.7453, 36.08515], [136.75533, 36.08566], [136.76383, 36.0747], [136.76426, 36.06768], [136.75902, 36.06708], [136.75273, 36.06237], [136.74443, 36.05994], [136.74051, 36.05431], [136.73279, 36.04888], [136.7354, 36.04789], [136.73573, 36.03231], [136.7332, 36.02748], [136.73439, 36.02099], [136.73087, 36.01757], [136.73237, 36.01302], [136.72889, 36.00936], [136.7294, 36.00146], [136.72675, 35.99594], [136.73451, 35.9934], [136.75081, 35.99041], [136.75334, 35.97821], [136.75242, 35.97313], [136.75348, 35.96814], [136.74885, 35.9636], [136.75287, 35.95646], [136.76658, 35.95284], [136.77043, 35.95043], [136.777, 35.95119], [136.78486, 35.94865], [136.78906, 35.94866], [136.79346, 35.94559], [136.79339, 35.94092], [136.78686, 35.93365], [136.78386, 35.92778], [136.7865, 35.9223], [136.79947, 35.92032], [136.80596, 35.91277], [136.81149, 35.91264], [136.82377, 35.89277], [136.82288, 35.88641], [136.819, 35.88166], [136.82601, 35.87458], [136.82575, 35.87008], [136.83015, 35.86557], [136.83235, 35.85927], [136.83107, 35.85181], [136.82512, 35.84541], [136.81545, 35.84254], [136.80229, 35.84403], [136.79992, 35.8372], [136.79942, 35.83134], [136.79709, 35.8281], [136.79853, 35.81774], [136.78943, 35.79961], [136.7834, 35.79811], [136.78212, 35.79945], [136.77414, 35.80005], [136.77439, 35.80667], [136.77158, 35.8068], [136.76391, 35.81061], [136.75447, 35.80924], [136.74516, 35.80429], [136.7411, 35.80107], [136.73238, 35.80658], [136.72452, 35.80815], [136.72058, 35.80022], [136.71005, 35.79204], [136.70512, 35.79143], [136.70004, 35.79417], [136.68978, 35.78928], [136.68129, 35.78992], [136.67696, 35.79325], [136.66846, 35.78862], [136.66614, 35.78514], [136.65767, 35.78348], [136.65433, 35.78588], [136.65267, 35.79106], [136.65251, 35.79873], [136.6452, 35.80683], [136.6408, 35.80349], [136.63818, 35.79749], [136.63243, 35.79572], [136.62663, 35.79684], [136.62775, 35.79107], [136.62227, 35.78691], [136.61529, 35.78929], [136.61145, 35.7888], [136.59966, 35.79855], [136.59523, 35.7953], [136.59001, 35.79566], [136.58482, 35.78803], [136.586, 35.78443], [136.57707, 35.78152], [136.57232, 35.77804], [136.56583, 35.77966], [136.56201, 35.77866], [136.55582, 35.78098], [136.55068, 35.78108], [136.54528, 35.77871], [136.53065, 35.78415], [136.52303, 35.78817], [136.51846, 35.77943], [136.51331, 35.77533], [136.51196, 35.77191], [136.5139, 35.76664], [136.51225, 35.75894], [136.50863, 35.75742], [136.50616, 35.75033], [136.50362, 35.75072], [136.49943, 35.75579], [136.49651, 35.76553], [136.48593, 35.77311], [136.48458, 35.77514], [136.47459, 35.77275], [136.46741, 35.7733], [136.46158, 35.77871], [136.45154, 35.77665], [136.4458, 35.77291], [136.44121, 35.77518], [136.43093, 35.77499], [136.41896, 35.7823], [136.41597, 35.78245], [136.42297, 35.79346]]]}}, {"type": "Feature", "properties": {"region": "丹南", "prefecture": "福井県"}, "geometry": {"type": "Polygon", "coordinates": [[[136.34677, 35.77624], [136.3358, 35.77629], [136.32795, 35.7751], [136.32166, 35.7653], [136.3184, 35.75098], [136.32005, 35.74729], [136.32503, 35.74466], [136.32404, 35.74046], [136.32696, 35.73152], [136.32526, 35.72638], [136.32052, 35.72293], [136.32395, 35.71675], [136.31038, 35.71053], [136.31085, 35.70567], [136.30474, 35.70153], [136.29762, 35.69178], [136.29177, 35.69039], [136.29084, 35.68768], [136.29435, 35.68107], [136.29893, 35.67881], [136.29601, 35.67568], [136.28917, 35.67173], [136.29042, 35.66583], [136.28053, 35.66128], [136.27029, 35.66809], [136.26403, 35.67106], [136.25782, 35.67119], [136.25037, 35.67625], [136.24465, 35.67379], [136.23441, 35.68246], [136.22768, 35.68047], [136.2172, 35.68458], [136.21261, 35.6817], [136.20804, 35.68769], [136.20419, 35.68679], [136.1985, 35.68957], [136.19375, 35.70019], [136.19128, 35.70236], [136.18528, 35.70373], [136.17836, 35.70181], [136.17459, 35.70374], [136.17014, 35.70149], [136.16775, 35.70334], [136.16559, 35.69666], [136.1618, 35.69643], [136.15675, 35.70037], [136.15035, 35.69772], [136.14534, 35.70236], [136.14812, 35.70321], [136.14879, 35.71065], [136.1426, 35.71606], [136.13199, 35.72269], [136.13357, 35.72495], [136.13336, 35.73353], [136.1307, 35.74095], [136.12693, 35.74245], [136.12219, 35.7498], [136.11854, 35.75185], [136.11764, 35.75772], [136.11277, 35.76542], [136.09831, 35.76524], [136.09672, 35.76734], [136.10025, 35.77826], [136.09014, 35.79112], [136.08768, 35.79787], [136.08384, 35.80112], [136.0764, 35.81165], [136.07031, 35.82483], [136.06125, 35.82961], [136.05257, 35.83668], [136.04339, 35.8441], [136.0421, 35.84707], [136.03253, 35.85586], [136.01123, 35.87236], [136.00434, 35.87801], [135.99674, 35.88706], [135.99403, 35.88783], [135.99528, 35.8985], [135.99786, 35.90297], [135.99508, 35.91469], [135.99803, 35.92688], [135.99672, 35.93583], [135.9902, 35.94209], [135.98556, 35.94439], [135.98726, 35.94601], [135.98489, 35.95209], [135.98139, 35.9556], [135.97425, 35.95831], [135.96746, 35.96652], [135.96699, 35.96967], [135.96211, 35.97156], [135.95853, 35.97638], [135.96068, 35.97823], [135.95769, 35.98182], [135.96281, 35.98669], [135.96165, 35.99096], [135.9653, 35.99196], [135.96437, 35.99751], [135.96936, 35.99227], [135.98556, 35.98778], [135.98403, 35.98492], [135.99072, 35.98284], [135.9962, 35.98269], [136.00224, 35.98636], [136.0088, 35.98776], [136.00404, 35.99101], [136.00248, 35.99687], [136.00467, 35.99945], [136.00349, 36.00544], [136.00571, 36.01], [136.01033, 36.01148], [136.01173, 36.01424], [136.02257, 36.00558], [136.02832, 35.99618], [136.03157, 35.99999], [136.03261, 35.99691], [136.04756, 36.00429], [136.04821, 36.00749], [136.05225, 36.01168], [136.05611, 36.01209], [136.05506, 36.01507], [136.05706, 36.02661], [136.06204, 36.02803], [136.06656, 36.02642], [136.07215, 36.02812], [136.07185, 36.0239], [136.07529, 36.02121], [136.08175, 36.0191], [136.08129, 36.01419], [136.08679, 36.01574], [136.09671, 36.0096], [136.09693, 36.00493], [136.11031, 36.00224], [136.11755, 36.00255], [136.12084, 36.00105], [136.12809, 36.00388], [136.13095, 36.00208], [136.13776, 35.99283], [136.15523, 35.99229], [136.1608, 35.99367], [136.15741, 35.99556], [136.15901, 35.99821], [136.16618, 35.99602], [136.16828, 35.99788], [136.176, 35.99981], [136.18069, 35.99914], [136.17981, 35.99446], [136.18507, 35.99229], [136.18619, 35.98972], [136.19465, 35.99078], [136.20638, 35.98573], [136.204, 35.98156], [136.20378, 35.97525], [136.20759, 35.97088], [136.20994, 35.97737], [136.21512, 35.98042], [136.21517, 35.98338], [136.21874, 35.98464], [136.22383, 35.99046], [136.23209, 35.99067], [136.23888, 35.98346], [136.25454, 35.97932], [136.25938, 35.98042], [136.26265, 35.97881], [136.27113, 35.97797], [136.27485, 35.97215], [136.28257, 35.97176], [136.29008, 35.974], [136.30007, 35.96865], [136.30397, 35.96446], [136.312, 35.96612], [136.31772, 35.96421], [136.31801, 35.95804], [136.32306, 35.95673], [136.32294, 35.95186], [136.32786, 35.95035], [136.32934, 35.95186], [136.33646, 35.95128], [136.33157, 35.94293], [136.33395, 35.93934], [136.33374, 35.92867], [136.3386, 35.92976], [136.34179, 35.9328], [136.34545, 35.93139], [136.35019, 35.93432], [136.3522, 35.94235], [136.3583, 35.94754], [136.36701, 35.94789], [136.37544, 35.9517], [136.38391, 35.95123], [136.3876, 35.95261], [136.39976, 35.94835], [136.40675, 35.94898], [136.41395, 35.94396], [136.42146, 35.94091], [136.42302, 35.9388], [136.42933, 35.93833], [136.43608, 35.9357], [136.4398, 35.93226], [136.43868, 35.92781], [136.45649, 35.9204], [136.46052, 35.92055], [136.45509, 35.9133], [136.45003, 35.9131], [136.44661, 35.91015], [136.43877, 35.90864], [136.43759, 35.90105], [136.43252, 35.89635], [136.43296, 35.88886], [136.43926, 35.88601], [136.43993, 35.87861], [136.43307, 35.87194], [136.43496, 35.86715], [136.42979, 35.86342], [136.42768, 35.85905], [136.4298, 35.85493], [136.4365, 35.84979], [136.43104, 35.85049], [136.42886, 35.83899], [136.42378, 35.83446], [136.42473, 35.82801], [136.42819, 35.82359], [136.42293, 35.82086], [136.42324, 35.81302], [136.43256, 35.80714], [136.43131, 35.79797], [136.4279, 35.79483], [136.42297, 35.79346], [136.41597, 35.78245], [136.40921, 35.77993], [136.40452, 35.78314], [136.40014, 35.78937], [136.3895, 35.78804], [136.38896, 35.79179], [136.37666, 35.79518], [136.36407, 35.78818], [136.35709, 35.78683], [136.35602, 35.78442], [136.34841, 35.78002], [136.34677, 35.77624]]]}}, {"type": "Feature", "properties": {"region": "二州", "prefecture": "福井県"}, "geometry": {"type": "MultiPolygon", "coordinates": [[[[135.90407, 35.58728], [135.89968, 35.58931], [135.89903, 35.59276], [135.90611, 35.58885], [135.90407, 35.58728]]], [[[135.98095, 35.48669], [135.9726, 35.50019], [135.96719, 35.50298], [135.96258, 35.50133], [135.95759, 35.50596], [135.95237, 35.50622], [135.9504, 35.51474], [135.94702, 35.52048], [135.95428, 35.52633], [135.95298, 35.54038], [135.94992, 35.54619], [135.9449, 35.55115], [135.94618, 35.55498], [135.94262, 35.56197], [135.94388, 35.56536], [135.9402, 35.5741], [135.93162, 35.5797], [135.92062, 35.57938], [135.91526, 35.58268], [135.91493, 35.58548], [135.90774, 35.58955], [135.9087, 35.59434], [135.90492, 35.60074], [135.90087, 35.59975], [135.90131, 35.60418], [135.89751, 35.6012], [135.88922, 35.59783], [135.88528, 35.59887], [135.88148, 35.60714], [135.87894, 35.60864], [135.87407, 35.60729], [135.8745, 35.6039], [135.87055, 35.60134], [135.86451, 35.60286], [135.86075, 35.60652], [135.85589, 35.60784], [135.84814, 35.6149], [135.84812, 35.61759], [135.83987, 35.62698], [135.84089, 35.63307], [135.83919, 35.6349], [135.83421, 35.63444], [135.83003, 35.63743], [135.82046, 35.64147], [135.81464, 35.64225], [135.8228, 35.64416], [135.82769, 35.63885], [135.83524, 35.63621], [135.83981, 35.63778], [135.84621, 35.63545], [135.84328, 35.62741], [135.84803, 35.62302], [135.85371, 35.62507], [135.85859, 35.62344], [135.85981, 35.62038], [135.85647, 35.61571], [135.85915, 35.61113], [135.87015, 35.6083], [135.87664, 35.61033], [135.87992, 35.61639], [135.88511, 35.61785], [135.89321, 35.61161], [135.89627, 35.61555], [135.89441, 35.62003], [135.89875, 35.62401], [135.90759, 35.62458], [135.90756, 35.61728], [135.9089, 35.6135], [135.91265, 35.61312], [135.91368, 35.60931], [135.9261, 35.61014], [135.93878, 35.61461], [135.94826, 35.62614], [135.95141, 35.62863], [135.94791, 35.63208], [135.95464, 35.63432], [135.95456, 35.62912], [135.96201, 35.62264], [135.96942, 35.62263], [135.97829, 35.62758], [135.98483, 35.63639], [135.98549, 35.64329], [135.97624, 35.65103], [135.97462, 35.65465], [135.97116, 35.65635], [135.96686, 35.65495], [135.96313, 35.65706], [135.96662, 35.65937], [135.96689, 35.66732], [135.96849, 35.67433], [135.97429, 35.67951], [135.97757, 35.68669], [135.97543, 35.69827], [135.9707, 35.70418], [135.9726, 35.70743], [135.97124, 35.71181], [135.9631, 35.70919], [135.96145, 35.70427], [135.96582, 35.70674], [135.96672, 35.70152], [135.96249, 35.69963], [135.95572, 35.70336], [135.95894, 35.70517], [135.95943, 35.71667], [135.95447, 35.72266], [135.95876, 35.727], [135.96459, 35.73011], [135.96775, 35.73499], [135.97386, 35.73541], [135.97602, 35.73252], [135.9811, 35.7331], [135.98417, 35.73577], [135.9845, 35.73973], [135.99481, 35.74866], [136.00116, 35.74988], [136.00537, 35.75609], [136.00905, 35.75509], [136.01036, 35.75817], [136.01574, 35.76025], [136.01684, 35.76369], [136.01999, 35.76366], [136.02595, 35.75482], [136.02974, 35.75355], [136.03636, 35.7403], [136.0307, 35.74328], [136.02404, 35.74997], [136.02248, 35.74521], [136.02772, 35.7414], [136.02814, 35.73736], [136.03641, 35.72963], [136.0384, 35.72522], [136.03578, 35.72116], [136.03621, 35.71782], [136.03998, 35.71291], [136.03837, 35.70852], [136.04426, 35.70514], [136.04068, 35.69941], [136.04419, 35.69802], [136.04419, 35.69114], [136.03624, 35.69433], [136.03155, 35.69167], [136.02544, 35.68345], [136.02653, 35.6791], [136.03332, 35.67568], [136.03634, 35.67559], [136.03779, 35.67215], [136.04285, 35.66948], [136.04239, 35.667], [136.04568, 35.66345], [136.04323, 35.65997], [136.04654, 35.65743], [136.05601, 35.65667], [136.07185, 35.66068], [136.0718, 35.66308], [136.06267, 35.66379], [136.06255, 35.66806], [136.06848, 35.6681], [136.07172, 35.66592], [136.07429, 35.6674], [136.07429, 35.67806], [136.08262, 35.68148], [136.08586, 35.68659], [136.0814, 35.68917], [136.08005, 35.69725], [136.08161, 35.69946], [136.07945, 35.70478], [136.08301, 35.70521], [136.09242, 35.71104], [136.09107, 35.71704], [136.09496, 35.72004], [136.09857, 35.72631], [136.09603, 35.72947], [136.09727, 35.73272], [136.09552, 35.73656], [136.08649, 35.73817], [136.08817, 35.74134], [136.09471, 35.74219], [136.09993, 35.74668], [136.10121, 35.75815], [136.09831, 35.76524], [136.11277, 35.76542], [136.11764, 35.75772], [136.11854, 35.75185], [136.12219, 35.7498], [136.12693, 35.74245], [136.1307, 35.74095], [136.13336, 35.73353], [136.13357, 35.72495], [136.13199, 35.72269], [136.1426, 35.71606], [136.14879, 35.71065], [136.14812, 35.70321], [136.14534, 35.70236], [136.15035, 35.69772], [136.15026, 35.69112], [136.14354, 35.68318], [136.14231, 35.67902], [136.13961, 35.67797], [136.13449, 35.66982], [136.136, 35.6661], [136.14058, 35.66382], [136.14782, 35.66252], [136.1504, 35.65886], [136.15008, 35.65482], [136.15405, 35.64382], [136.15699, 35.64141], [136.15977, 35.63496], [136.15858, 35.62974], [136.15987, 35.62523], [136.1626, 35.62391], [136.17036, 35.61236], [136.1708, 35.60868], [136.17437, 35.60359], [136.17749, 35.59498], [136.17242, 35.58834], [136.16647, 35.58265], [136.17062, 35.57548], [136.16993, 35.56629], [136.16688, 35.56535], [136.16324, 35.57114], [136.15087, 35.57288], [136.14333, 35.57115], [136.14173, 35.57394], [136.13601, 35.57585], [136.13282, 35.57453], [136.1184, 35.57713], [136.11734, 35.58084], [136.11359, 35.58278], [136.11222, 35.57984], [136.1126, 35.57341], [136.10794, 35.5683], [136.11068, 35.56332], [136.11024, 35.55939], [136.10545, 35.55542], [136.10905, 35.54966], [136.10941, 35.54512], [136.10587, 35.53826], [136.10722, 35.53072], [136.10528, 35.52866], [136.09356, 35.53734], [136.08323, 35.54056], [136.0767, 35.53443], [136.07705, 35.53055], [136.06923, 35.52625], [136.06235, 35.52815], [136.06072, 35.53187], [136.04823, 35.53449], [136.04638, 35.53018], [136.04094, 35.53218], [136.02828, 35.52907], [136.02653, 35.5295], [136.02887, 35.52361], [136.02345, 35.52001], [136.02031, 35.51203], [136.01596, 35.51227], [136.01173, 35.50484], [136.01169, 35.49762], [136.00666, 35.49182], [135.99319, 35.49159], [135.98951, 35.49268], [135.98095, 35.48669]]]]}}, {"type": "Feature", "properties": {"region": "若狭", "prefecture": "福井県"}, "geometry": {"type": "MultiPolygon", "coordinates": [[[[135.58351, 35.49074], [135.59234, 35.49044], [135.59796, 35.48831], [135.60523, 35.48369], [135.62075, 35.48597], [135.62646, 35.48149], [135.62924, 35.4836], [135.63804, 35.47984], [135.64517, 35.4786], [135.65433, 35.48042], [135.65777, 35.48687], [135.66243, 35.49371], [135.66536, 35.49017], [135.67232, 35.49056], [135.67295, 35.48798], [135.68073, 35.48724], [135.69502, 35.48917], [135.70143, 35.49398], [135.70217, 35.48949], [135.70731, 35.48982], [135.71126, 35.48435], [135.71881, 35.48421], [135.7211, 35.49204], [135.72712, 35.49172], [135.73074, 35.49516], [135.73391, 35.49308], [135.73738, 35.49431], [135.74084, 35.4986], [135.73618, 35.50072], [135.73814, 35.50407], [135.7406, 35.50267], [135.74919, 35.51381], [135.75068, 35.51745], [135.75095, 35.53004], [135.756, 35.53258], [135.75929, 35.53033], [135.76344, 35.53109], [135.76504, 35.534], [135.76332, 35.53761], [135.75795, 35.53862], [135.75588, 35.53691], [135.75065, 35.5377], [135.74899, 35.5336], [135.74339, 35.53701], [135.73714, 35.53528], [135.73449, 35.52889], [135.73513, 35.52671], [135.72719, 35.52157], [135.72306, 35.52179], [135.71807, 35.5197], [135.71602, 35.53065], [135.71828, 35.53421], [135.71678, 35.54074], [135.70289, 35.54431], [135.69446, 35.54268], [135.68915, 35.54488], [135.6907, 35.54939], [135.69582, 35.55204], [135.70351, 35.55799], [135.70713, 35.56382], [135.71223, 35.56436], [135.71451, 35.5697], [135.71914, 35.5703], [135.72167, 35.56821], [135.73606, 35.57129], [135.74152, 35.57025], [135.74118, 35.56828], [135.74552, 35.56435], [135.75056, 35.56592], [135.75277, 35.5581], [135.75006, 35.55565], [135.75438, 35.55274], [135.75257, 35.54998], [135.75397, 35.546], [135.75881, 35.54256], [135.76108, 35.54444], [135.76951, 35.54331], [135.77145, 35.54711], [135.76913, 35.54792], [135.76402, 35.55485], [135.76509, 35.55726], [135.77553, 35.54933], [135.77956, 35.55036], [135.78247, 35.54518], [135.79006, 35.54046], [135.78577, 35.53655], [135.78846, 35.53142], [135.79546, 35.53085], [135.79622, 35.52612], [135.80026, 35.52555], [135.80006, 35.52828], [135.8059, 35.53202], [135.80645, 35.52824], [135.81197, 35.52739], [135.81637, 35.53306], [135.81268, 35.53766], [135.82072, 35.53627], [135.82128, 35.53392], [135.82722, 35.53328], [135.83373, 35.5359], [135.83106, 35.54226], [135.82643, 35.54215], [135.82916, 35.54476], [135.82596, 35.546], [135.82459, 35.55259], [135.82123, 35.55138], [135.82151, 35.5545], [135.81167, 35.55901], [135.81194, 35.56406], [135.80385, 35.56531], [135.80391, 35.56931], [135.81017, 35.57151], [135.81186, 35.57683], [135.81518, 35.57165], [135.82037, 35.57371], [135.82358, 35.57001], [135.82715, 35.56923], [135.82794, 35.56401], [135.83463, 35.56178], [135.84022, 35.56349], [135.84249, 35.57095], [135.84816, 35.57086], [135.85008, 35.57341], [135.84885, 35.57766], [135.8555, 35.57946], [135.85738, 35.5818], [135.85432, 35.58728], [135.85756, 35.58927], [135.85234, 35.59185], [135.85535, 35.5954], [135.85563, 35.60033], [135.85356, 35.60305], [135.84392, 35.6021], [135.84515, 35.60512], [135.83941, 35.60746], [135.83265, 35.60292], [135.82795, 35.6074], [135.8279, 35.60742], [135.82789, 35.60799], [135.82746, 35.60811], [135.82745, 35.60812], [135.8273, 35.61145], [135.8317, 35.61291], [135.83868, 35.61614], [135.83767, 35.62267], [135.82381, 35.62413], [135.82553, 35.62685], [135.82357, 35.63135], [135.83172, 35.62968], [135.83283, 35.6314], [135.82771, 35.63526], [135.82206, 35.6375], [135.81458, 35.63228], [135.81283, 35.63903], [135.81464, 35.64225], [135.82046, 35.64147], [135.83003, 35.63743], [135.83421, 35.63444], [135.83919, 35.6349], [135.84089, 35.63307], [135.83987, 35.62698], [135.84812, 35.61759], [135.84814, 35.6149], [135.85589, 35.60784], [135.86075, 35.60652], [135.86451, 35.60286], [135.87055, 35.60134], [135.8745, 35.6039], [135.87407, 35.60729], [135.87894, 35.60864], [135.88148, 35.60714], [135.88528, 35.59887], [135.88922, 35.59783], [135.89751, 35.6012], [135.90131, 35.60418], [135.90087, 35.59975], [135.90492, 35.60074], [135.9087, 35.59434], [135.90774, 35.58955], [135.91493, 35.58548], [135.91526, 35.58268], [135.92062, 35.57938], [135.93162, 35.5797], [135.9402, 35.5741], [135.94388, 35.56536], [135.94262, 35.56197], [135.94618, 35.55498], [135.9449, 35.55115], [135.94992, 35.54619], [135.95298, 35.54038], [135.95428, 35.52633], [135.94702, 35.52048], [135.93965, 35.52054], [135.93802, 35.51116], [135.93529, 35.50391], [135.93321, 35.50231], [135.93003, 35.49234], [135.92483, 35.48997], [135.92229, 35.48582], [135.92374, 35.4817], [135.9216, 35.47583], [135.91594, 35.47075], [135.91733, 35.46676], [135.91485, 35.45914], [135.91459, 35.45186], [135.91014, 35.44762], [135.91297, 35.44548], [135.91281, 35.44], [135.9146, 35.43799], [135.91416, 35.43211], [135.90808, 35.42952], [135.90226, 35.4291], [135.90098, 35.42576], [135.89298, 35.41985], [135.89355, 35.41073], [135.89057, 35.40318], [135.88029, 35.4006], [135.87555, 35.3974], [135.8674, 35.39476], [135.86043, 35.39525], [135.85434, 35.40078], [135.85561, 35.40903], [135.85313, 35.41154], [135.84968, 35.41059], [135.83837, 35.41422], [135.83631, 35.41201], [135.8267, 35.41465], [135.81923, 35.41255], [135.81321, 35.41298], [135.81076, 35.40947], [135.81056, 35.40326], [135.80809, 35.39524], [135.81015, 35.39165], [135.80753, 35.38536], [135.7991, 35.38492], [135.79524, 35.38739], [135.79089, 35.38664], [135.79198, 35.3814], [135.78998, 35.37837], [135.78454, 35.37747], [135.77915, 35.37352], [135.77775, 35.36594], [135.77409, 35.36474], [135.77007, 35.35998], [135.76879, 35.35601], [135.76176, 35.35566], [135.75982, 35.35318], [135.74414, 35.35894], [135.74024, 35.35841], [135.74062, 35.35395], [135.73637, 35.35115], [135.73148, 35.35055], [135.7278, 35.35258], [135.72378, 35.35194], [135.71894, 35.3553], [135.71334, 35.35356], [135.71072, 35.348], [135.70478, 35.34643], [135.70099, 35.34369], [135.69272, 35.3458], [135.68995, 35.34785], [135.68526, 35.34743], [135.67711, 35.34984], [135.67367, 35.35328], [135.6695, 35.35434], [135.6682, 35.35707], [135.66134, 35.35634], [135.65933, 35.3585], [135.65244, 35.35994], [135.64242, 35.36667], [135.63664, 35.36371], [135.62367, 35.36978], [135.61492, 35.37102], [135.61121, 35.36686], [135.60691, 35.37166], [135.59979, 35.37122], [135.59495, 35.37265], [135.59387, 35.37048], [135.5881, 35.36826], [135.58395, 35.3702], [135.57905, 35.37509], [135.57173, 35.37426], [135.56584, 35.37733], [135.55774, 35.37753], [135.53698, 35.37667], [135.52754, 35.38022], [135.52715, 35.38469], [135.52878, 35.39072], [135.53164, 35.3928], [135.53016, 35.39741], [135.5279, 35.39766], [135.5252, 35.40308], [135.52997, 35.40842], [135.52772, 35.41214], [135.52702, 35.41842], [135.52081, 35.42293], [135.51566, 35.42191], [135.50997, 35.42429], [135.50205, 35.42003], [135.4997, 35.42415], [135.49615, 35.42507], [135.49547, 35.42926], [135.50049, 35.43255], [135.49779, 35.43755], [135.48812, 35.43922], [135.48937, 35.44092], [135.48609, 35.4486], [135.48086, 35.44808], [135.47032, 35.45449], [135.46712, 35.46043], [135.46277, 35.46225], [135.45838, 35.46818], [135.45895, 35.47297], [135.4624, 35.47869], [135.46959, 35.48479], [135.47037, 35.48902], [135.4763, 35.48968], [135.47263, 35.5013], [135.47622, 35.50549], [135.47303, 35.50823], [135.46677, 35.50931], [135.46364, 35.51316], [135.45976, 35.51445], [135.44993, 35.5208], [135.44986, 35.52725], [135.45454, 35.53415], [135.45441, 35.53796], [135.46029, 35.54387], [135.46048, 35.54846], [135.46684, 35.55191], [135.4866, 35.55794], [135.48372, 35.5531], [135.47888, 35.55122], [135.4799, 35.54662], [135.4784, 35.54223], [135.47315, 35.54053], [135.47474, 35.53806], [135.46827, 35.53197], [135.46998, 35.52963], [135.48062, 35.53534], [135.48378, 35.53257], [135.47786, 35.52568], [135.47986, 35.52256], [135.48761, 35.52308], [135.48867, 35.52906], [135.49129, 35.53058], [135.49402, 35.52747], [135.49185, 35.52361], [135.49482, 35.52225], [135.49732, 35.52497], [135.50143, 35.524], [135.5034, 35.52671], [135.50281, 35.53328], [135.50582, 35.53286], [135.50925, 35.53692], [135.50399, 35.5399], [135.49806, 35.53882], [135.4955, 35.54085], [135.5022, 35.54259], [135.49943, 35.54752], [135.4992, 35.55385], [135.50208, 35.5534], [135.50356, 35.5496], [135.5155, 35.54914], [135.5186, 35.54724], [135.51418, 35.53563], [135.51729, 35.53493], [135.51362, 35.53063], [135.51724, 35.52637], [135.51258, 35.52324], [135.51433, 35.51725], [135.50889, 35.5125], [135.51058, 35.50889], [135.50717, 35.50621], [135.51047, 35.50092], [135.51369, 35.50129], [135.5151, 35.49617], [135.51894, 35.4938], [135.53328, 35.48947], [135.54014, 35.48962], [135.54612, 35.49446], [135.55079, 35.49294], [135.55106, 35.49611], [135.55482, 35.49584], [135.5561, 35.49055], [135.56384, 35.49024], [135.57484, 35.49335], [135.57686, 35.49959], [135.57968, 35.49803], [135.59191, 35.50241], [135.60253, 35.51389], [135.60604, 35.51655], [135.61327, 35.51912], [135.61791, 35.51881], [135.6207, 35.52161], [135.62006, 35.52692], [135.62658, 35.53297], [135.62992, 35.53392], [135.63173, 35.53737], [135.63676, 35.53698], [135.64179, 35.53903], [135.64298, 35.54162], [135.65184, 35.54546], [135.65821, 35.54496], [135.66507, 35.54187], [135.66623, 35.53861], [135.66118, 35.53853], [135.65947, 35.53584], [135.66172, 35.53294], [135.66618, 35.53335], [135.66935, 35.52454], [135.66617, 35.52354], [135.662, 35.52569], [135.66124, 35.52924], [135.65453, 35.53083], [135.63603, 35.52008], [135.63279, 35.52112], [135.63283, 35.51809], [135.6412, 35.51962], [135.63739, 35.51241], [135.64177, 35.51045], [135.64205, 35.50688], [135.63642, 35.50395], [135.62646, 35.49121], [135.61611, 35.49242], [135.60936, 35.49204], [135.60629, 35.49026], [135.59679, 35.49214], [135.59222, 35.49452], [135.58409, 35.49261], [135.58351, 35.49074]], [[135.90407, 35.58728], [135.90611, 35.58885], [135.89903, 35.59276], [135.89968, 35.58931], [135.90407, 35.58728]]], [[[135.80648, 35.63123], [135.80276, 35.63012], [135.80503, 35.63937], [135.80699, 35.63877], [135.80648, 35.63123]]], [[[135.85004, 35.57343], [135.85007, 35.57342], [135.85008, 35.57341], [135.85007, 35.57341], [135.85004, 35.57342], [135.85004, 35.57343]]]]}}]}