{"type": "FeatureCollection", "features": [{"type": "Feature", "properties": {"region": "横浜市", "prefecture": "神奈川県"}, "geometry": {"type": "Polygon", "coordinates": [[[139.56786, 35.57144], [139.57678, 35.56851], [139.58008, 35.56922], [139.60071, 35.56554], [139.61011, 35.56459], [139.61352, 35.56095], [139.61076, 35.55747], [139.61087, 35.55282], [139.60672, 35.55239], [139.6028, 35.54623], [139.60222, 35.54098], [139.59859, 35.54108], [139.59486, 35.53638], [139.59897, 35.53283], [139.59957, 35.5285], [139.60376, 35.52329], [139.60224, 35.51629], [139.59665, 35.51745], [139.59213, 35.51369], [139.58528, 35.51313], [139.5728, 35.51571], [139.56913, 35.51312], [139.55819, 35.5107], [139.55253, 35.51207], [139.55173, 35.5174], [139.54768, 35.52198], [139.54487, 35.53228], [139.54132, 35.53644], [139.5517, 35.53968], [139.55198, 35.54803], [139.55749, 35.55243], [139.56171, 35.5524], [139.56412, 35.55882], [139.56173, 35.56097], [139.56786, 35.57144]]]}}, {"type": "Feature", "properties": {"region": "川崎市", "prefecture": "神奈川県"}, "geometry": {"type": "MultiPolygon", "coordinates": [[[[139.46993, 35.56989], [139.47325, 35.57385], [139.47649, 35.58201], [139.48208, 35.58161], [139.48498, 35.58461], [139.48987, 35.58358], [139.48287, 35.57138], [139.46993, 35.56989]]], [[[139.51965, 35.62111], [139.52351, 35.62186], [139.52568, 35.61621], [139.52268, 35.6146], [139.52355, 35.60731], [139.52676, 35.60293], [139.53051, 35.60259], [139.53109, 35.59679], [139.52657, 35.5925], [139.52637, 35.58722], [139.5291, 35.58225], [139.52488, 35.57896], [139.52177, 35.5711], [139.51279, 35.5672], [139.51291, 35.56958], [139.50701, 35.57582], [139.50546, 35.57479], [139.49922, 35.58097], [139.49402, 35.58269], [139.49183, 35.58855], [139.47904, 35.59631], [139.47802, 35.59897], [139.47119, 35.60106], [139.46334, 35.60888], [139.45352, 35.60448], [139.44928, 35.61178], [139.45317, 35.61861], [139.45535, 35.6182], [139.46216, 35.62488], [139.46727, 35.62083], [139.47507, 35.61998], [139.47674, 35.61427], [139.48127, 35.61006], [139.48655, 35.60843], [139.48959, 35.60431], [139.49981, 35.60557], [139.49468, 35.61729], [139.50373, 35.62294], [139.51458, 35.62473], [139.51965, 35.62111]]]]}}, {"type": "Feature", "properties": {"region": "相模原市", "prefecture": "神奈川県"}, "geometry": {"type": "Polygon", "coordinates": [[[139.45577, 35.52047], [139.45234, 35.51747], [139.44718, 35.51683], [139.44277, 35.51233], [139.42924, 35.50737], [139.42767, 35.51141], [139.4205, 35.51542], [139.41032, 35.50594], [139.40685, 35.49931], [139.39963, 35.49665], [139.39208, 35.49621], [139.38766, 35.49096], [139.37397, 35.49182], [139.37635, 35.50325], [139.37546, 35.51708], [139.36407, 35.52079], [139.35512, 35.5269], [139.36098, 35.53352], [139.36721, 35.53322], [139.37264, 35.53688], [139.37274, 35.54011], [139.38193, 35.54399], [139.38804, 35.54891], [139.38997, 35.54709], [139.39747, 35.55316], [139.39627, 35.55439], [139.40314, 35.5594], [139.41342, 35.55462], [139.41774, 35.55833], [139.41819, 35.56177], [139.42185, 35.55981], [139.42779, 35.55115], [139.43339, 35.54636], [139.43601, 35.54683], [139.4451, 35.54113], [139.44923, 35.53464], [139.45832, 35.52799], [139.45577, 35.52047]]]}}, {"type": "Feature", "properties": {"region": "横須賀市", "prefecture": "神奈川県"}, "geometry": {"type": "MultiPolygon", "coordinates": [[[[139.72877, 35.22372], [139.7226, 35.22418], [139.72209, 35.22731], [139.71477, 35.22661], [139.71331, 35.22044], [139.72006, 35.222], [139.71524, 35.21765], [139.72276, 35.21828], [139.72498, 35.21191], [139.70731, 35.21108], [139.69205, 35.20932], [139.68546, 35.20709], [139.66712, 35.19556], [139.66478, 35.19306], [139.65829, 35.2024], [139.65516, 35.20445], [139.65496, 35.20979], [139.64725, 35.20632], [139.63594, 35.20615], [139.63211, 35.20452], [139.63012, 35.19979], [139.62048, 35.19654], [139.61572, 35.18993], [139.60938, 35.1902], [139.60921, 35.1939], [139.59973, 35.19364], [139.60229, 35.19787], [139.60622, 35.19928], [139.60364, 35.20188], [139.60976, 35.20959], [139.62395, 35.20815], [139.62745, 35.21572], [139.62123, 35.22008], [139.60263, 35.22538], [139.60371, 35.23223], [139.59968, 35.23501], [139.59984, 35.23889], [139.59212, 35.24494], [139.58819, 35.24973], [139.58208, 35.25334], [139.57805, 35.25337], [139.58204, 35.25487], [139.59689, 35.25604], [139.60346, 35.2581], [139.61324, 35.25773], [139.61833, 35.2615], [139.62156, 35.25746], [139.62672, 35.25556], [139.63807, 35.26379], [139.63864, 35.27013], [139.64195, 35.27229], [139.63161, 35.27491], [139.62797, 35.27874], [139.62311, 35.27927], [139.62104, 35.28449], [139.62375, 35.28583], [139.62251, 35.29322], [139.61806, 35.3028], [139.61202, 35.30668], [139.60943, 35.3125], [139.61326, 35.31698], [139.62461, 35.31874], [139.6316, 35.3252], [139.6358, 35.32344], [139.63684, 35.32463], [139.63689, 35.3247], [139.63725, 35.32512], [139.63744, 35.32531], [139.63774, 35.32564], [139.64073, 35.33037], [139.64899, 35.32742], [139.66067, 35.32817], [139.66122, 35.32226], [139.65569, 35.32157], [139.65607, 35.3176], [139.65121, 35.31968], [139.65121, 35.31569], [139.6449, 35.31268], [139.64244, 35.30753], [139.63668, 35.31172], [139.6423, 35.30458], [139.63896, 35.30068], [139.63108, 35.3], [139.63352, 35.29564], [139.63909, 35.29498], [139.64257, 35.29819], [139.64834, 35.29304], [139.64965, 35.28805], [139.6523, 35.28802], [139.6608, 35.28288], [139.66074, 35.28719], [139.65696, 35.29066], [139.66542, 35.29261], [139.66221, 35.3008], [139.66886, 35.30184], [139.67431, 35.3004], [139.6798, 35.29582], [139.67751, 35.29451], [139.68102, 35.2891], [139.67178, 35.28832], [139.67518, 35.28381], [139.67907, 35.28465], [139.67732, 35.28005], [139.68577, 35.27558], [139.68983, 35.27147], [139.69099, 35.26657], [139.70328, 35.26395], [139.72108, 35.26317], [139.73252, 35.26585], [139.73253, 35.26278], [139.73929, 35.26165], [139.74245, 35.25854], [139.747, 35.25347], [139.73503, 35.24859], [139.73322, 35.24084], [139.72689, 35.23949], [139.72016, 35.24031], [139.72772, 35.23317], [139.72877, 35.22372]]], [[[139.65291, 35.29669], [139.64841, 35.2948], [139.64371, 35.30033], [139.65184, 35.30742], [139.65679, 35.30163], [139.6526, 35.29971], [139.65291, 35.29669]]]]}}, {"type": "Feature", "properties": {"region": "藤沢市", "prefecture": "神奈川県"}, "geometry": {"type": "MultiPolygon", "coordinates": [[[[139.49364, 35.37509], [139.48992, 35.37184], [139.48588, 35.35942], [139.49539, 35.35771], [139.50344, 35.35538], [139.51179, 35.34759], [139.5111, 35.34417], [139.51683, 35.34137], [139.50978, 35.33363], [139.50289, 35.33279], [139.49705, 35.32442], [139.4971, 35.31959], [139.49071, 35.3125], [139.48867, 35.30759], [139.48141, 35.3049], [139.47832, 35.30993], [139.47368, 35.31317], [139.45446, 35.3178], [139.43804, 35.31915], [139.44339, 35.33153], [139.44415, 35.34053], [139.44261, 35.34729], [139.43733, 35.35408], [139.43651, 35.36338], [139.44143, 35.36812], [139.43393, 35.3679], [139.43335, 35.37333], [139.42837, 35.37132], [139.43248, 35.37952], [139.43061, 35.38492], [139.42822, 35.38397], [139.41593, 35.38469], [139.40638, 35.3797], [139.40501, 35.3773], [139.39964, 35.38459], [139.40314, 35.39008], [139.39596, 35.38992], [139.39684, 35.39661], [139.39549, 35.40128], [139.40126, 35.40068], [139.40695, 35.40768], [139.41344, 35.41595], [139.413, 35.41905], [139.42409, 35.41627], [139.42491, 35.41972], [139.434, 35.41855], [139.44254, 35.41312], [139.44245, 35.40749], [139.44884, 35.40755], [139.45528, 35.41257], [139.45658, 35.41726], [139.44365, 35.42761], [139.4478, 35.42797], [139.46108, 35.42275], [139.47278, 35.42415], [139.47804, 35.41993], [139.47567, 35.41027], [139.47892, 35.39163], [139.48427, 35.38737], [139.48601, 35.38228], [139.49151, 35.3796], [139.49364, 35.37509]]], [[[139.47844, 35.29764], [139.47846, 35.29767], [139.47845, 35.29765], [139.47844, 35.29764]]], [[[139.47782, 35.29818], [139.47611, 35.29811], [139.47766, 35.30061], [139.47791, 35.30066], [139.48162, 35.30301], [139.48804, 35.29893], [139.48079, 35.29798], [139.48043, 35.29744], [139.48042, 35.29744], [139.47996, 35.29759], [139.47985, 35.29762], [139.47853, 35.29818], [139.47784, 35.29828], [139.47782, 35.29818]]], [[[139.47998, 35.29714], [139.47994, 35.29701], [139.47993, 35.29702], [139.47998, 35.29714]]]]}}, {"type": "Feature", "properties": {"region": "茅ケ崎市", "prefecture": "神奈川県"}, "geometry": {"type": "Polygon", "coordinates": [[[139.37195, 35.36064], [139.36864, 35.36323], [139.3709, 35.36785], [139.37465, 35.38853], [139.37347, 35.3945], [139.37181, 35.40068], [139.38389, 35.40118], [139.38861, 35.39991], [139.39549, 35.40128], [139.39684, 35.39661], [139.39596, 35.38992], [139.40314, 35.39008], [139.39964, 35.38459], [139.40501, 35.3773], [139.40638, 35.3797], [139.41593, 35.38469], [139.42822, 35.38397], [139.43061, 35.38492], [139.43248, 35.37952], [139.42837, 35.37132], [139.43335, 35.37333], [139.43393, 35.3679], [139.44143, 35.36812], [139.43651, 35.36338], [139.43733, 35.35408], [139.44261, 35.34729], [139.44415, 35.34053], [139.44339, 35.33153], [139.43804, 35.31915], [139.42669, 35.31884], [139.41571, 35.31667], [139.40094, 35.31778], [139.39709, 35.31555], [139.39104, 35.31659], [139.38293, 35.31518], [139.37436, 35.31533], [139.36944, 35.32327], [139.36935, 35.32978], [139.37482, 35.33983], [139.36953, 35.34012], [139.37044, 35.35116], [139.37195, 35.36064]]]}}, {"type": "Feature", "properties": {"region": "平塚", "prefecture": "神奈川県"}, "geometry": {"type": "Polygon", "coordinates": [[[139.24979, 35.2928], [139.23408, 35.28644], [139.23738, 35.29291], [139.23535, 35.29898], [139.23804, 35.30078], [139.23633, 35.31132], [139.23804, 35.31463], [139.23293, 35.31982], [139.24547, 35.32892], [139.24927, 35.32985], [139.24423, 35.33537], [139.2405, 35.33505], [139.23874, 35.34644], [139.25119, 35.35409], [139.26305, 35.35702], [139.26709, 35.35622], [139.27395, 35.36798], [139.27515, 35.3728], [139.2832, 35.37408], [139.29183, 35.37334], [139.29039, 35.3814], [139.30062, 35.38111], [139.30178, 35.38661], [139.30769, 35.38033], [139.31317, 35.37821], [139.3156, 35.37234], [139.3216, 35.36941], [139.31892, 35.37754], [139.31964, 35.38322], [139.32504, 35.37893], [139.32657, 35.38132], [139.33167, 35.3807], [139.33477, 35.38461], [139.34395, 35.38006], [139.34588, 35.38864], [139.34824, 35.3883], [139.34694, 35.37897], [139.35412, 35.38206], [139.35729, 35.38865], [139.35364, 35.39469], [139.35497, 35.40381], [139.3565, 35.4038], [139.35901, 35.3948], [139.37347, 35.3945], [139.37465, 35.38853], [139.3709, 35.36785], [139.36864, 35.36323], [139.37195, 35.36064], [139.37044, 35.35116], [139.36953, 35.34012], [139.37482, 35.33983], [139.36935, 35.32978], [139.36944, 35.32327], [139.37436, 35.31533], [139.36787, 35.31417], [139.35856, 35.31509], [139.33834, 35.31359], [139.33004, 35.31212], [139.32144, 35.30975], [139.31609, 35.30561], [139.31226, 35.30595], [139.29333, 35.30181], [139.26927, 35.29729], [139.24979, 35.2928]]]}}, {"type": "Feature", "properties": {"region": "平塚　秦野センター", "prefecture": "神奈川県"}, "geometry": {"type": "Polygon", "coordinates": [[[139.23152, 35.44597], [139.23122, 35.44098], [139.24062, 35.44197], [139.24294, 35.44698], [139.25508, 35.44791], [139.26418, 35.44516], [139.28836, 35.44014], [139.2963, 35.43484], [139.30207, 35.43279], [139.30317, 35.42824], [139.31642, 35.42134], [139.32195, 35.42464], [139.32203, 35.42808], [139.32647, 35.42799], [139.32977, 35.42425], [139.3468, 35.41591], [139.34847, 35.41286], [139.3478, 35.40581], [139.35223, 35.40016], [139.35364, 35.39469], [139.35729, 35.38865], [139.35412, 35.38206], [139.34694, 35.37897], [139.34824, 35.3883], [139.34588, 35.38864], [139.34395, 35.38006], [139.33477, 35.38461], [139.33167, 35.3807], [139.32657, 35.38132], [139.32504, 35.37893], [139.31964, 35.38322], [139.31892, 35.37754], [139.3216, 35.36941], [139.3156, 35.37234], [139.31317, 35.37821], [139.30769, 35.38033], [139.30178, 35.38661], [139.30062, 35.38111], [139.29039, 35.3814], [139.29183, 35.37334], [139.2832, 35.37408], [139.27515, 35.3728], [139.27395, 35.36798], [139.26709, 35.35622], [139.26305, 35.35702], [139.25119, 35.35409], [139.24433, 35.35534], [139.23355, 35.35126], [139.22236, 35.35366], [139.21758, 35.35171], [139.21193, 35.35636], [139.21279, 35.35824], [139.20546, 35.36127], [139.1883, 35.35177], [139.18707, 35.3534], [139.17786, 35.34731], [139.17396, 35.35121], [139.1697, 35.35933], [139.16033, 35.35648], [139.15742, 35.3653], [139.14913, 35.37281], [139.14413, 35.38166], [139.14453, 35.38805], [139.15028, 35.39192], [139.15005, 35.40407], [139.1453, 35.40969], [139.14786, 35.41397], [139.14847, 35.4202], [139.14555, 35.42957], [139.14145, 35.43514], [139.1414, 35.44415], [139.15475, 35.44516], [139.16088, 35.44978], [139.16339, 35.45403], [139.17667, 35.45149], [139.17898, 35.44743], [139.19385, 35.45104], [139.19698, 35.44969], [139.20221, 35.45487], [139.20366, 35.45991], [139.2075, 35.45922], [139.2161, 35.46123], [139.22874, 35.45705], [139.2283, 35.45223], [139.23152, 35.44597]]]}}, {"type": "Feature", "properties": {"region": "鎌倉", "prefecture": "神奈川県"}, "geometry": {"type": "Polygon", "coordinates": [[[139.54848, 35.35544], [139.55416, 35.35177], [139.55763, 35.34711], [139.56959, 35.34754], [139.57294, 35.34236], [139.57362, 35.33691], [139.58175, 35.33489], [139.58786, 35.33652], [139.58871, 35.33005], [139.59296, 35.32403], [139.59316, 35.32041], [139.59622, 35.31642], [139.60336, 35.31714], [139.60943, 35.3125], [139.61202, 35.30668], [139.61806, 35.3028], [139.62251, 35.29322], [139.62375, 35.28583], [139.62104, 35.28449], [139.62311, 35.27927], [139.62797, 35.27874], [139.63161, 35.27491], [139.64195, 35.27229], [139.63864, 35.27013], [139.63807, 35.26379], [139.62672, 35.25556], [139.62156, 35.25746], [139.61833, 35.2615], [139.61324, 35.25773], [139.60346, 35.2581], [139.59689, 35.25604], [139.58204, 35.25487], [139.57805, 35.25337], [139.5776, 35.2533], [139.57659, 35.25308], [139.57985, 35.25586], [139.57651, 35.26364], [139.56738, 35.26729], [139.57099, 35.27033], [139.56884, 35.2826], [139.56969, 35.28502], [139.57342, 35.2872], [139.57167, 35.29277], [139.56867, 35.2943], [139.5576, 35.29186], [139.5562, 35.29634], [139.55368, 35.29431], [139.55191, 35.29941], [139.55207, 35.30296], [139.54532, 35.30785], [139.53441, 35.30861], [139.53167, 35.30375], [139.5258, 35.30163], [139.50382, 35.30595], [139.49389, 35.30557], [139.48867, 35.30759], [139.49071, 35.3125], [139.4971, 35.31959], [139.49705, 35.32442], [139.50289, 35.33279], [139.50978, 35.33363], [139.51683, 35.34137], [139.5111, 35.34417], [139.51179, 35.34759], [139.50344, 35.35538], [139.49539, 35.35771], [139.50259, 35.36755], [139.51401, 35.36241], [139.51872, 35.36157], [139.52575, 35.35679], [139.52904, 35.35838], [139.53052, 35.35426], [139.5421, 35.35701], [139.54422, 35.363], [139.54901, 35.35965], [139.54848, 35.35544]]]}}, {"type": "Feature", "properties": {"region": "鎌倉　三崎センター", "prefecture": "神奈川県"}, "geometry": {"type": "MultiPolygon", "coordinates": [[[[139.62093, 35.13633], [139.62718, 35.13398], [139.62858, 35.12865], [139.62216, 35.1324], [139.60915, 35.13389], [139.60977, 35.13786], [139.62093, 35.13633]]], [[[139.67938, 35.15692], [139.68084, 35.14662], [139.67629, 35.14477], [139.67702, 35.13937], [139.67095, 35.1421], [139.66634, 35.14659], [139.66215, 35.14372], [139.6643, 35.1403], [139.66011, 35.14069], [139.65626, 35.1374], [139.65182, 35.14226], [139.64606, 35.13774], [139.63935, 35.13861], [139.63993, 35.14107], [139.63011, 35.13989], [139.6275, 35.13724], [139.61944, 35.1387], [139.6078, 35.14288], [139.61117, 35.14626], [139.61731, 35.1476], [139.60783, 35.15312], [139.61963, 35.1586], [139.61417, 35.16023], [139.61125, 35.15753], [139.61048, 35.16325], [139.61882, 35.16165], [139.61965, 35.16337], [139.62699, 35.16193], [139.63011, 35.16353], [139.61702, 35.1669], [139.61666, 35.17159], [139.61977, 35.17272], [139.61831, 35.17919], [139.61407, 35.18324], [139.61836, 35.18423], [139.61572, 35.18993], [139.62048, 35.19654], [139.63012, 35.19979], [139.63211, 35.20452], [139.63594, 35.20615], [139.64725, 35.20632], [139.65496, 35.20979], [139.65516, 35.20445], [139.65829, 35.2024], [139.66478, 35.19306], [139.65716, 35.18606], [139.65517, 35.18168], [139.65597, 35.1731], [139.66016, 35.17152], [139.6601, 35.1666], [139.66337, 35.1594], [139.67938, 35.15692]]]]}}, {"type": "Feature", "properties": {"region": "小田原", "prefecture": "神奈川県"}, "geometry": {"type": "Polygon", "coordinates": [[[139.15768, 35.14728], [139.16024, 35.14032], [139.15606, 35.14209], [139.15072, 35.14065], [139.14771, 35.14451], [139.14252, 35.14504], [139.13736, 35.14857], [139.13183, 35.15084], [139.12304, 35.15043], [139.11615, 35.14637], [139.11213, 35.14138], [139.0901, 35.14019], [139.08359, 35.14111], [139.07283, 35.14518], [139.06613, 35.14413], [139.05994, 35.14689], [139.05141, 35.14716], [139.0486, 35.14963], [139.03962, 35.15067], [139.03043, 35.14975], [139.02841, 35.15487], [139.03053, 35.15875], [139.02635, 35.15998], [139.02945, 35.16478], [139.02654, 35.17543], [139.02163, 35.18191], [139.01068, 35.18264], [139.00302, 35.18776], [138.99305, 35.19881], [138.98774, 35.20082], [138.98643, 35.20556], [138.98781, 35.21266], [138.98228, 35.21758], [138.98365, 35.22168], [138.97955, 35.23308], [138.97607, 35.23555], [138.97874, 35.23939], [138.97453, 35.2477], [138.97547, 35.26375], [138.98153, 35.26962], [138.98595, 35.27828], [138.99761, 35.28892], [139.00461, 35.2899], [139.01071, 35.28247], [139.01604, 35.28155], [139.03026, 35.27409], [139.03628, 35.27799], [139.0494, 35.28169], [139.05603, 35.27422], [139.06005, 35.27182], [139.07084, 35.27197], [139.09183, 35.2778], [139.10784, 35.27976], [139.11812, 35.28003], [139.12161, 35.28154], [139.12023, 35.28522], [139.12388, 35.28755], [139.13079, 35.28821], [139.13212, 35.29405], [139.13711, 35.28867], [139.13245, 35.30084], [139.13166, 35.30809], [139.13367, 35.3102], [139.13066, 35.31768], [139.13554, 35.31887], [139.13622, 35.32256], [139.14306, 35.32349], [139.14864, 35.31362], [139.15536, 35.31333], [139.16344, 35.31782], [139.16489, 35.31645], [139.16908, 35.3217], [139.1703, 35.32676], [139.18115, 35.32963], [139.18725, 35.32311], [139.18987, 35.31924], [139.19685, 35.3169], [139.20379, 35.31125], [139.21221, 35.31454], [139.21385, 35.3173], [139.22367, 35.31591], [139.23293, 35.31982], [139.23804, 35.31463], [139.23633, 35.31132], [139.23804, 35.30078], [139.23535, 35.29898], [139.23738, 35.29291], [139.23408, 35.28644], [139.22148, 35.28125], [139.20787, 35.27729], [139.1864, 35.26107], [139.17112, 35.25399], [139.15685, 35.24345], [139.14853, 35.23895], [139.14425, 35.23397], [139.14173, 35.22544], [139.14225, 35.20849], [139.1383, 35.1996], [139.13774, 35.1926], [139.14007, 35.18795], [139.13596, 35.18252], [139.1372, 35.17882], [139.14344, 35.17272], [139.14521, 35.16734], [139.14017, 35.16248], [139.14384, 35.1603], [139.14434, 35.15288], [139.15042, 35.14681], [139.15768, 35.14728]]]}}, {"type": "Feature", "properties": {"region": "小田原　足柄上センター", "prefecture": "神奈川県"}, "geometry": {"type": "Polygon", "coordinates": [[[139.13166, 35.30809], [139.13245, 35.30084], [139.13711, 35.28867], [139.13212, 35.29405], [139.13079, 35.28821], [139.12388, 35.28755], [139.12023, 35.28522], [139.12161, 35.28154], [139.11812, 35.28003], [139.10784, 35.27976], [139.09183, 35.2778], [139.07084, 35.27197], [139.06005, 35.27182], [139.05603, 35.27422], [139.0494, 35.28169], [139.03628, 35.27799], [139.03026, 35.27409], [139.01604, 35.28155], [139.01071, 35.28247], [139.00461, 35.2899], [139.00604, 35.29799], [139.0107, 35.3106], [139.00963, 35.31365], [139.01269, 35.31971], [139.0168, 35.32318], [139.01853, 35.32985], [139.01082, 35.33816], [139.01106, 35.34332], [139.00811, 35.3503], [139.01331, 35.35877], [139.00684, 35.36139], [139.00592, 35.37538], [138.99862, 35.38404], [139.0018, 35.39894], [138.99528, 35.40333], [138.98407, 35.40177], [138.97944, 35.40471], [138.96946, 35.4049], [138.96641, 35.4019], [138.94833, 35.40131], [138.93773, 35.39915], [138.93132, 35.40111], [138.9164, 35.40061], [138.91582, 35.40553], [138.91807, 35.41134], [138.92566, 35.41531], [138.92673, 35.42003], [138.93017, 35.42087], [138.93064, 35.42633], [138.92673, 35.43049], [138.9274, 35.43764], [138.93198, 35.44271], [138.95448, 35.45984], [138.95925, 35.46223], [138.96923, 35.46352], [138.97346, 35.46655], [138.97877, 35.46374], [138.98504, 35.46855], [138.98882, 35.47364], [138.9983, 35.4751], [139.00814, 35.47456], [139.01486, 35.47991], [139.02095, 35.47879], [139.02755, 35.48097], [139.03062, 35.4887], [139.03694, 35.49095], [139.04344, 35.49864], [139.04602, 35.50966], [139.0514, 35.51058], [139.06008, 35.5075], [139.06604, 35.50941], [139.06815, 35.50341], [139.07205, 35.5016], [139.07519, 35.49546], [139.08664, 35.49303], [139.09105, 35.48812], [139.09666, 35.48656], [139.10238, 35.47896], [139.11479, 35.47702], [139.12662, 35.47823], [139.13018, 35.48475], [139.1391, 35.48638], [139.14667, 35.48321], [139.15015, 35.47684], [139.15752, 35.47848], [139.16283, 35.47455], [139.16624, 35.46535], [139.1653, 35.45679], [139.16339, 35.45403], [139.16088, 35.44978], [139.15475, 35.44516], [139.1414, 35.44415], [139.14145, 35.43514], [139.14555, 35.42957], [139.14847, 35.4202], [139.14786, 35.41397], [139.1453, 35.40969], [139.15005, 35.40407], [139.15028, 35.39192], [139.14453, 35.38805], [139.14413, 35.38166], [139.14913, 35.37281], [139.15742, 35.3653], [139.16033, 35.35648], [139.1697, 35.35933], [139.17396, 35.35121], [139.17786, 35.34731], [139.18707, 35.3534], [139.1883, 35.35177], [139.20546, 35.36127], [139.21279, 35.35824], [139.21193, 35.35636], [139.21758, 35.35171], [139.22236, 35.35366], [139.23355, 35.35126], [139.24433, 35.35534], [139.25119, 35.35409], [139.23874, 35.34644], [139.2405, 35.33505], [139.24423, 35.33537], [139.24927, 35.32985], [139.24547, 35.32892], [139.23293, 35.31982], [139.22367, 35.31591], [139.21385, 35.3173], [139.21221, 35.31454], [139.20379, 35.31125], [139.19685, 35.3169], [139.18987, 35.31924], [139.18725, 35.32311], [139.18115, 35.32963], [139.1703, 35.32676], [139.16908, 35.3217], [139.16489, 35.31645], [139.16344, 35.31782], [139.15536, 35.31333], [139.14864, 35.31362], [139.14306, 35.32349], [139.13622, 35.32256], [139.13554, 35.31887], [139.13066, 35.31768], [139.13367, 35.3102], [139.13166, 35.30809]]]}}, {"type": "Feature", "properties": {"region": "厚木", "prefecture": "神奈川県"}, "geometry": {"type": "Polygon", "coordinates": [[[139.42117, 35.46792], [139.41444, 35.4607], [139.41591, 35.45756], [139.41121, 35.45743], [139.40654, 35.45297], [139.40702, 35.44918], [139.40281, 35.44849], [139.40706, 35.44287], [139.41027, 35.42959], [139.40644, 35.41095], [139.40695, 35.40768], [139.40126, 35.40068], [139.39549, 35.40128], [139.38861, 35.39991], [139.38389, 35.40118], [139.37181, 35.40068], [139.37347, 35.3945], [139.35901, 35.3948], [139.3565, 35.4038], [139.35497, 35.40381], [139.35364, 35.39469], [139.35223, 35.40016], [139.3478, 35.40581], [139.34847, 35.41286], [139.3468, 35.41591], [139.32977, 35.42425], [139.32647, 35.42799], [139.32203, 35.42808], [139.32195, 35.42464], [139.31642, 35.42134], [139.30317, 35.42824], [139.30207, 35.43279], [139.2963, 35.43484], [139.28836, 35.44014], [139.26418, 35.44516], [139.25508, 35.44791], [139.24294, 35.44698], [139.24062, 35.44197], [139.23122, 35.44098], [139.23152, 35.44597], [139.2283, 35.45223], [139.22874, 35.45705], [139.2161, 35.46123], [139.2075, 35.45922], [139.20366, 35.45991], [139.20221, 35.45487], [139.19698, 35.44969], [139.19385, 35.45104], [139.17898, 35.44743], [139.17667, 35.45149], [139.16339, 35.45403], [139.1653, 35.45679], [139.16624, 35.46535], [139.16283, 35.47455], [139.1667, 35.48309], [139.1756, 35.48997], [139.1813, 35.49721], [139.19203, 35.50618], [139.19954, 35.50693], [139.20441, 35.51391], [139.20958, 35.51573], [139.21084, 35.52062], [139.21544, 35.52117], [139.21449, 35.52531], [139.22298, 35.52787], [139.21757, 35.53267], [139.22011, 35.5346], [139.22973, 35.53644], [139.23248, 35.53187], [139.23833, 35.53417], [139.2406, 35.53803], [139.24813, 35.54252], [139.24984, 35.54693], [139.2623, 35.55015], [139.27888, 35.54601], [139.28657, 35.55623], [139.29444, 35.55651], [139.30321, 35.55145], [139.30769, 35.54436], [139.31738, 35.53826], [139.32537, 35.54398], [139.34405, 35.53285], [139.35451, 35.52747], [139.35512, 35.5269], [139.36407, 35.52079], [139.37546, 35.51708], [139.37635, 35.50325], [139.37397, 35.49182], [139.38766, 35.49096], [139.39208, 35.49621], [139.39963, 35.49665], [139.40685, 35.49931], [139.41032, 35.50594], [139.4205, 35.51542], [139.42767, 35.51141], [139.42924, 35.50737], [139.43884, 35.47992], [139.4349, 35.4773], [139.43649, 35.46733], [139.42221, 35.4659], [139.42117, 35.46792]]]}}, {"type": "Feature", "properties": {"region": "厚木　大和センター", "prefecture": "神奈川県"}, "geometry": {"type": "Polygon", "coordinates": [[[139.44365, 35.42761], [139.45658, 35.41726], [139.45528, 35.41257], [139.44884, 35.40755], [139.44245, 35.40749], [139.44254, 35.41312], [139.434, 35.41855], [139.42491, 35.41972], [139.42409, 35.41627], [139.413, 35.41905], [139.41344, 35.41595], [139.40695, 35.40768], [139.40644, 35.41095], [139.41027, 35.42959], [139.40706, 35.44287], [139.40281, 35.44849], [139.40702, 35.44918], [139.40654, 35.45297], [139.41121, 35.45743], [139.41591, 35.45756], [139.41444, 35.4607], [139.42117, 35.46792], [139.42221, 35.4659], [139.43649, 35.46733], [139.4349, 35.4773], [139.43884, 35.47992], [139.42924, 35.50737], [139.44277, 35.51233], [139.44718, 35.51683], [139.45234, 35.51747], [139.45577, 35.52047], [139.46328, 35.51784], [139.46485, 35.5109], [139.46827, 35.50621], [139.46772, 35.50237], [139.46492, 35.49802], [139.47058, 35.49263], [139.4695, 35.48532], [139.47174, 35.47236], [139.47451, 35.46977], [139.47216, 35.46226], [139.4742, 35.45693], [139.48067, 35.44862], [139.47315, 35.43577], [139.47278, 35.42415], [139.46108, 35.42275], [139.4478, 35.42797], [139.44365, 35.42761]]]}}]}