{"type": "FeatureCollection", "features": [{"type": "Feature", "properties": {"region": "北・左京", "prefecture": "京都府"}, "geometry": {"type": "Polygon", "coordinates": [[[135.76429, 35.03745], [135.75216, 35.03756], [135.73563, 35.0346], [135.73314, 35.02243], [135.72681, 35.02254], [135.72226, 35.02768], [135.72222, 35.03591], [135.71238, 35.04386], [135.7133, 35.05355], [135.70897, 35.05316], [135.7107, 35.05943], [135.69565, 35.07032], [135.68786, 35.08151], [135.68487, 35.07649], [135.67659, 35.07898], [135.67723, 35.08332], [135.66748, 35.08689], [135.673, 35.09429], [135.66353, 35.09804], [135.65619, 35.09046], [135.65026, 35.10143], [135.65455, 35.10876], [135.64923, 35.10986], [135.64862, 35.11912], [135.65426, 35.1147], [135.65984, 35.11612], [135.6704, 35.1232], [135.67429, 35.12976], [135.67549, 35.13773], [135.67259, 35.14169], [135.67293, 35.15863], [135.67456, 35.16403], [135.67937, 35.16688], [135.70579, 35.16592], [135.70956, 35.16408], [135.71364, 35.16882], [135.72027, 35.16824], [135.72407, 35.17149], [135.73087, 35.16987], [135.73364, 35.16281], [135.74179, 35.15825], [135.74466, 35.1501], [135.75317, 35.14693], [135.75899, 35.1505], [135.766, 35.1509], [135.7732, 35.15715], [135.76997, 35.16637], [135.77081, 35.17269], [135.77518, 35.17698], [135.77401, 35.18152], [135.76418, 35.19142], [135.75665, 35.19603], [135.7542, 35.20741], [135.76256, 35.21499], [135.7612, 35.23317], [135.755, 35.2444], [135.74219, 35.24313], [135.73323, 35.24559], [135.72821, 35.2503], [135.73297, 35.25533], [135.73224, 35.26613], [135.72735, 35.26777], [135.72567, 35.27171], [135.73153, 35.27778], [135.72921, 35.28377], [135.73628, 35.28771], [135.74833, 35.28667], [135.7661, 35.28954], [135.77426, 35.28411], [135.77996, 35.28751], [135.77768, 35.29449], [135.77748, 35.30512], [135.78769, 35.30797], [135.79519, 35.32124], [135.80878, 35.31688], [135.81067, 35.30832], [135.81436, 35.30711], [135.81497, 35.30113], [135.8214, 35.29684], [135.82005, 35.29107], [135.82962, 35.27674], [135.83402, 35.27429], [135.84962, 35.28028], [135.85168, 35.28597], [135.85843, 35.28923], [135.86076, 35.28296], [135.85453, 35.27533], [135.85248, 35.26896], [135.84753, 35.26667], [135.84609, 35.25711], [135.84236, 35.2532], [135.83992, 35.24385], [135.83462, 35.24121], [135.83793, 35.23528], [135.83735, 35.22596], [135.83086, 35.22276], [135.83105, 35.21062], [135.8356, 35.20651], [135.83524, 35.20221], [135.84191, 35.18984], [135.84063, 35.18007], [135.84681, 35.16239], [135.85615, 35.15944], [135.85676, 35.15362], [135.84871, 35.14185], [135.85229, 35.13427], [135.84987, 35.12064], [135.84326, 35.1099], [135.84294, 35.10252], [135.83505, 35.09133], [135.83984, 35.08614], [135.83832, 35.07908], [135.83189, 35.07146], [135.83592, 35.05897], [135.83329, 35.05301], [135.82698, 35.05385], [135.8159, 35.04737], [135.81542, 35.04215], [135.82462, 35.03564], [135.82811, 35.02838], [135.82644, 35.0236], [135.83452, 35.02208], [135.83546, 35.01233], [135.82024, 35.01296], [135.8088, 35.01561], [135.80459, 35.01462], [135.80073, 35.0076], [135.79071, 35.00773], [135.78448, 35.01085], [135.77179, 35.00959], [135.77163, 35.01669], [135.77153, 35.0292], [135.76981, 35.03263], [135.76429, 35.03745]]]}}, {"type": "Feature", "properties": {"region": "上京・中京・下京", "prefecture": "京都府"}, "geometry": {"type": "Polygon", "coordinates": [[[135.76804, 34.99623], [135.7678, 34.9819], [135.76681, 34.98392], [135.74577, 34.98499], [135.73431, 34.98147], [135.72729, 34.98577], [135.72905, 34.99379], [135.73289, 34.9964], [135.73288, 35.00827], [135.72409, 35.00853], [135.72403, 35.01604], [135.72681, 35.02254], [135.73314, 35.02243], [135.73563, 35.0346], [135.75216, 35.03756], [135.76429, 35.03745], [135.76981, 35.03263], [135.77153, 35.0292], [135.77163, 35.01669], [135.77179, 35.00959], [135.77157, 35.004], [135.76804, 34.99623]]]}}, {"type": "Feature", "properties": {"region": "東山・山科", "prefecture": "京都府"}, "geometry": {"type": "Polygon", "coordinates": [[[135.8241, 35.00882], [135.83268, 35.00943], [135.83656, 35.00123], [135.8269, 34.9912], [135.84304, 34.99001], [135.84927, 34.99173], [135.84912, 34.98481], [135.85503, 34.98474], [135.85676, 34.98], [135.85244, 34.97079], [135.86341, 34.96005], [135.84077, 34.96586], [135.83605, 34.96986], [135.82835, 34.9642], [135.81997, 34.96478], [135.81768, 34.95755], [135.80482, 34.95297], [135.80178, 34.95543], [135.79357, 34.95035], [135.79051, 34.9587], [135.79129, 34.96506], [135.78783, 34.97165], [135.7769, 34.97391], [135.76464, 34.97299], [135.7678, 34.9819], [135.76804, 34.99623], [135.77157, 35.004], [135.77179, 35.00959], [135.78448, 35.01085], [135.79071, 35.00773], [135.80073, 35.0076], [135.80459, 35.01462], [135.8088, 35.01561], [135.82024, 35.01296], [135.8241, 35.00882]]]}}, {"type": "Feature", "properties": {"region": "南・伏見", "prefecture": "京都府"}, "geometry": {"type": "Polygon", "coordinates": [[[135.79129, 34.96506], [135.79051, 34.9587], [135.79357, 34.95035], [135.80178, 34.95543], [135.80482, 34.95297], [135.81768, 34.95755], [135.81997, 34.96478], [135.82835, 34.9642], [135.83605, 34.96986], [135.84077, 34.96586], [135.86341, 34.96005], [135.86486, 34.95717], [135.8742, 34.95502], [135.87844, 34.94743], [135.86263, 34.95084], [135.85947, 34.95709], [135.85192, 34.95693], [135.84463, 34.94808], [135.84991, 34.93941], [135.84868, 34.93229], [135.84002, 34.93046], [135.84469, 34.9355], [135.8305, 34.93623], [135.82941, 34.92739], [135.81814, 34.92665], [135.8075, 34.93759], [135.79981, 34.93417], [135.79688, 34.93787], [135.7919, 34.92987], [135.78984, 34.91699], [135.77613, 34.91614], [135.76092, 34.90808], [135.75307, 34.90417], [135.74771, 34.91139], [135.74028, 34.90479], [135.71595, 34.89923], [135.7201, 34.89286], [135.72146, 34.88929], [135.72258, 34.88798], [135.72871, 34.88515], [135.73271, 34.87826], [135.73247, 34.87492], [135.72374, 34.8804], [135.71544, 34.88278], [135.71195, 34.8932], [135.70549, 34.89468], [135.70317, 34.89869], [135.70653, 34.90811], [135.71419, 34.91601], [135.7146, 34.92906], [135.71384, 34.93562], [135.71833, 34.94212], [135.71744, 34.95058], [135.70956, 34.95572], [135.70998, 34.96252], [135.70512, 34.96345], [135.70493, 34.96855], [135.72203, 34.96867], [135.72192, 34.97327], [135.71536, 34.98005], [135.71856, 34.98402], [135.72729, 34.98577], [135.73431, 34.98147], [135.74577, 34.98499], [135.76681, 34.98392], [135.7678, 34.9819], [135.76464, 34.97299], [135.7769, 34.97391], [135.78783, 34.97165], [135.79129, 34.96506]]]}}, {"type": "Feature", "properties": {"region": "右京・西京", "prefecture": "京都府"}, "geometry": {"type": "Polygon", "coordinates": [[[135.72192, 34.97327], [135.72203, 34.96867], [135.70493, 34.96855], [135.70512, 34.96345], [135.69974, 34.96858], [135.68782, 34.96675], [135.68325, 34.96916], [135.68312, 34.96423], [135.69497, 34.94668], [135.6799, 34.94449], [135.67461, 34.94569], [135.66455, 34.93925], [135.65928, 34.93294], [135.65345, 34.93395], [135.64316, 34.92971], [135.63281, 34.93471], [135.62375, 34.93491], [135.6152, 34.92762], [135.59932, 34.92829], [135.6034, 34.93594], [135.61019, 34.93938], [135.61879, 34.95882], [135.61326, 34.9712], [135.62397, 34.97439], [135.64116, 34.97531], [135.63819, 34.98078], [135.639, 34.99788], [135.64607, 35.00129], [135.64675, 35.00748], [135.6375, 35.01684], [135.63987, 35.02344], [135.6262, 35.03954], [135.62178, 35.03803], [135.61713, 35.04316], [135.61766, 35.0558], [135.622, 35.06459], [135.61882, 35.06818], [135.60842, 35.06651], [135.60253, 35.06294], [135.59959, 35.07067], [135.5901, 35.0771], [135.59205, 35.08477], [135.59792, 35.09435], [135.60516, 35.09266], [135.61456, 35.09738], [135.61648, 35.10388], [135.61202, 35.10491], [135.6039, 35.11226], [135.59731, 35.11006], [135.59226, 35.11678], [135.59097, 35.12417], [135.59554, 35.12888], [135.58635, 35.12707], [135.57761, 35.12769], [135.57529, 35.13252], [135.56792, 35.12759], [135.55901, 35.13693], [135.56238, 35.14823], [135.56163, 35.15656], [135.57234, 35.16577], [135.57861, 35.18014], [135.59654, 35.20255], [135.59668, 35.21212], [135.58978, 35.21656], [135.59109, 35.2205], [135.60902, 35.22846], [135.6192, 35.2255], [135.62018, 35.23317], [135.62961, 35.23591], [135.62887, 35.24537], [135.64001, 35.25804], [135.65192, 35.25997], [135.65551, 35.26335], [135.68942, 35.25521], [135.70375, 35.25755], [135.71757, 35.26532], [135.72735, 35.26777], [135.73224, 35.26613], [135.73297, 35.25533], [135.72821, 35.2503], [135.73323, 35.24559], [135.74219, 35.24313], [135.755, 35.2444], [135.7612, 35.23317], [135.76256, 35.21499], [135.7542, 35.20741], [135.75665, 35.19603], [135.76418, 35.19142], [135.77401, 35.18152], [135.77518, 35.17698], [135.77081, 35.17269], [135.76997, 35.16637], [135.7732, 35.15715], [135.766, 35.1509], [135.75899, 35.1505], [135.75317, 35.14693], [135.74466, 35.1501], [135.74179, 35.15825], [135.73364, 35.16281], [135.73087, 35.16987], [135.72407, 35.17149], [135.72027, 35.16824], [135.71364, 35.16882], [135.70956, 35.16408], [135.70579, 35.16592], [135.67937, 35.16688], [135.67456, 35.16403], [135.67293, 35.15863], [135.67259, 35.14169], [135.67549, 35.13773], [135.67429, 35.12976], [135.6704, 35.1232], [135.65984, 35.11612], [135.65426, 35.1147], [135.64862, 35.11912], [135.64923, 35.10986], [135.65455, 35.10876], [135.65026, 35.10143], [135.65619, 35.09046], [135.66353, 35.09804], [135.673, 35.09429], [135.66748, 35.08689], [135.67723, 35.08332], [135.67659, 35.07898], [135.68487, 35.07649], [135.68786, 35.08151], [135.69565, 35.07032], [135.7107, 35.05943], [135.70897, 35.05316], [135.7133, 35.05355], [135.71238, 35.04386], [135.72222, 35.03591], [135.72226, 35.02768], [135.72681, 35.02254], [135.72403, 35.01604], [135.72409, 35.00853], [135.73288, 35.00827], [135.73289, 34.9964], [135.72905, 34.99379], [135.72729, 34.98577], [135.71856, 34.98402], [135.71536, 34.98005], [135.72192, 34.97327]]]}}, {"type": "Feature", "properties": {"region": "乙訓", "prefecture": "京都府"}, "geometry": {"type": "Polygon", "coordinates": [[[135.70317, 34.89869], [135.69351, 34.89209], [135.68269, 34.88784], [135.67921, 34.89032], [135.67577, 34.8993], [135.6671, 34.90423], [135.66203, 34.9037], [135.65409, 34.90934], [135.6485, 34.90955], [135.64815, 34.91625], [135.65232, 34.91708], [135.64854, 34.92599], [135.64316, 34.92971], [135.65345, 34.93395], [135.65928, 34.93294], [135.66455, 34.93925], [135.67461, 34.94569], [135.6799, 34.94449], [135.69497, 34.94668], [135.68312, 34.96423], [135.68325, 34.96916], [135.68782, 34.96675], [135.69974, 34.96858], [135.70512, 34.96345], [135.70998, 34.96252], [135.70956, 34.95572], [135.71744, 34.95058], [135.71833, 34.94212], [135.71384, 34.93562], [135.7146, 34.92906], [135.71419, 34.91601], [135.70653, 34.90811], [135.70317, 34.89869]]]}}, {"type": "Feature", "properties": {"region": "山城北", "prefecture": "京都府"}, "geometry": {"type": "Polygon", "coordinates": [[[135.79467, 34.78754], [135.78636, 34.78892], [135.78283, 34.78037], [135.77111, 34.78137], [135.75997, 34.77949], [135.754, 34.76938], [135.76247, 34.76491], [135.75578, 34.76396], [135.7475, 34.75616], [135.74197, 34.75688], [135.73671, 34.75181], [135.7332, 34.75488], [135.72863, 34.778], [135.74067, 34.78837], [135.74659, 34.80124], [135.73108, 34.82266], [135.72327, 34.82623], [135.7187, 34.83182], [135.7053, 34.85099], [135.69491, 34.84828], [135.69065, 34.85652], [135.69112, 34.86889], [135.68241, 34.87225], [135.68352, 34.87763], [135.67992, 34.88134], [135.68269, 34.88784], [135.69351, 34.89209], [135.70317, 34.89869], [135.70549, 34.89468], [135.71195, 34.8932], [135.71544, 34.88278], [135.72374, 34.8804], [135.73247, 34.87492], [135.73271, 34.87826], [135.72871, 34.88515], [135.72258, 34.88798], [135.72146, 34.88929], [135.7201, 34.89286], [135.71595, 34.89923], [135.74028, 34.90479], [135.74771, 34.91139], [135.75307, 34.90417], [135.76092, 34.90808], [135.77613, 34.91614], [135.78984, 34.91699], [135.7919, 34.92987], [135.79688, 34.93787], [135.79981, 34.93417], [135.8075, 34.93759], [135.81814, 34.92665], [135.82941, 34.92739], [135.8305, 34.93623], [135.84469, 34.9355], [135.84002, 34.93046], [135.84868, 34.93229], [135.84991, 34.93941], [135.84463, 34.94808], [135.85192, 34.95693], [135.85947, 34.95709], [135.86263, 34.95084], [135.87844, 34.94743], [135.87603, 34.94323], [135.87992, 34.93452], [135.87071, 34.926], [135.86865, 34.91923], [135.87118, 34.91506], [135.86967, 34.90782], [135.86313, 34.9037], [135.86701, 34.8976], [135.86664, 34.89214], [135.88141, 34.88375], [135.8886, 34.88158], [135.88501, 34.87564], [135.89967, 34.8714], [135.90946, 34.8769], [135.91266, 34.88352], [135.92297, 34.88358], [135.94089, 34.89368], [135.94008, 34.88028], [135.94363, 34.87279], [135.94099, 34.86374], [135.94619, 34.85178], [135.93241, 34.84459], [135.92385, 34.83299], [135.9116, 34.8345], [135.90431, 34.83049], [135.90623, 34.82817], [135.89739, 34.82243], [135.88754, 34.82483], [135.88874, 34.82102], [135.87858, 34.81641], [135.86938, 34.81617], [135.86107, 34.81365], [135.86736, 34.80685], [135.86769, 34.80265], [135.84664, 34.8003], [135.83689, 34.80065], [135.82807, 34.7986], [135.82527, 34.79484], [135.813, 34.79158], [135.80044, 34.79007], [135.79467, 34.78754]]]}}, {"type": "Feature", "properties": {"region": "山城南", "prefecture": "京都府"}, "geometry": {"type": "Polygon", "coordinates": [[[135.91616, 34.75369], [135.91175, 34.74385], [135.90089, 34.73096], [135.89739, 34.73087], [135.89017, 34.70944], [135.88516, 34.71362], [135.87614, 34.71388], [135.86592, 34.70949], [135.86331, 34.70624], [135.84902, 34.70597], [135.84941, 34.70821], [135.839, 34.7118], [135.82692, 34.71356], [135.81979, 34.71169], [135.80621, 34.7179], [135.79907, 34.72311], [135.79627, 34.72054], [135.79196, 34.72473], [135.77813, 34.72317], [135.7548, 34.72826], [135.75706, 34.73592], [135.74923, 34.74131], [135.74717, 34.74647], [135.73923, 34.74827], [135.73671, 34.75181], [135.74197, 34.75688], [135.7475, 34.75616], [135.75578, 34.76396], [135.76247, 34.76491], [135.754, 34.76938], [135.75997, 34.77949], [135.77111, 34.78137], [135.78283, 34.78037], [135.78636, 34.78892], [135.79467, 34.78754], [135.80044, 34.79007], [135.813, 34.79158], [135.82527, 34.79484], [135.82807, 34.7986], [135.83689, 34.80065], [135.84664, 34.8003], [135.86769, 34.80265], [135.86736, 34.80685], [135.86107, 34.81365], [135.86938, 34.81617], [135.87858, 34.81641], [135.88874, 34.82102], [135.88754, 34.82483], [135.89739, 34.82243], [135.90623, 34.82817], [135.90431, 34.83049], [135.9116, 34.8345], [135.92385, 34.83299], [135.93241, 34.84459], [135.94619, 34.85178], [135.9614, 34.85466], [135.96273, 34.85043], [135.97205, 34.84605], [135.96985, 34.83813], [135.98218, 34.83935], [136.00075, 34.84509], [136.00534, 34.84293], [136.00233, 34.83276], [136.00538, 34.82656], [136.01217, 34.82517], [136.01599, 34.82889], [136.02786, 34.82166], [136.02846, 34.81912], [136.02853, 34.81592], [136.01505, 34.80915], [136.01016, 34.79965], [136.01125, 34.79586], [136.02229, 34.79156], [136.01996, 34.78637], [136.02254, 34.78242], [136.03358, 34.77944], [136.03331, 34.77182], [136.02934, 34.76482], [136.0302, 34.75591], [136.03813, 34.75622], [136.03927, 34.74939], [136.05459, 34.73839], [136.04489, 34.73725], [136.04187, 34.73428], [136.03945, 34.72012], [136.02889, 34.71325], [136.02878, 34.70635], [136.01387, 34.7078], [136.01268, 34.71403], [136.00536, 34.7173], [135.99945, 34.71295], [135.99215, 34.71215], [135.98616, 34.71531], [135.98609, 34.72632], [135.98371, 34.73441], [135.97278, 34.74208], [135.96975, 34.74052], [135.96586, 34.74317], [135.95865, 34.74026], [135.95492, 34.74829], [135.94383, 34.74132], [135.94312, 34.73775], [135.93609, 34.74007], [135.93247, 34.73765], [135.92392, 34.74145], [135.92331, 34.74519], [135.92857, 34.75134], [135.92896, 34.75684], [135.92207, 34.75476], [135.91616, 34.75369]]]}}, {"type": "Feature", "properties": {"region": "南丹", "prefecture": "京都府"}, "geometry": {"type": "Polygon", "coordinates": [[[135.59205, 35.08477], [135.5901, 35.0771], [135.59959, 35.07067], [135.60253, 35.06294], [135.60842, 35.06651], [135.61882, 35.06818], [135.622, 35.06459], [135.61766, 35.0558], [135.61713, 35.04316], [135.62178, 35.03803], [135.6262, 35.03954], [135.63987, 35.02344], [135.6375, 35.01684], [135.64675, 35.00748], [135.64607, 35.00129], [135.639, 34.99788], [135.63819, 34.98078], [135.64116, 34.97531], [135.62397, 34.97439], [135.61326, 34.9712], [135.6037, 34.97112], [135.5921, 34.96611], [135.58228, 34.97663], [135.57093, 34.96979], [135.57123, 34.96392], [135.57836, 34.96046], [135.57858, 34.95589], [135.56313, 34.95366], [135.56231, 34.94365], [135.55719, 34.93869], [135.55867, 34.93531], [135.56471, 34.94236], [135.56468, 34.93302], [135.57192, 34.93908], [135.58105, 34.93704], [135.58126, 34.92245], [135.57229, 34.91638], [135.56274, 34.91779], [135.55333, 34.91555], [135.54947, 34.91855], [135.54106, 34.91531], [135.53601, 34.92092], [135.53815, 34.9254], [135.52256, 34.93028], [135.51502, 34.93692], [135.51459, 34.94412], [135.50403, 34.94629], [135.49967, 34.94134], [135.49042, 34.94179], [135.48834, 34.94639], [135.48086, 34.95029], [135.48586, 34.95643], [135.48117, 34.9624], [135.48846, 34.96657], [135.48741, 34.97544], [135.48316, 34.98187], [135.49306, 34.98767], [135.48189, 34.99515], [135.47122, 34.9948], [135.45987, 35.00159], [135.45197, 35.00175], [135.44018, 35.00769], [135.43349, 35.00792], [135.42282, 35.00211], [135.41865, 35.00271], [135.40977, 35.01153], [135.40325, 35.00669], [135.39747, 35.01064], [135.38158, 35.01031], [135.37769, 35.02064], [135.38207, 35.0309], [135.38004, 35.03911], [135.37125, 35.04529], [135.36873, 35.05489], [135.37715, 35.06087], [135.37661, 35.06602], [135.3871, 35.07254], [135.39969, 35.07616], [135.40011, 35.08596], [135.40428, 35.08899], [135.40068, 35.09382], [135.39161, 35.09803], [135.38803, 35.09713], [135.38917, 35.10833], [135.39331, 35.11051], [135.38607, 35.12074], [135.3912, 35.12648], [135.38222, 35.1298], [135.37274, 35.12896], [135.35988, 35.13216], [135.35471, 35.13666], [135.34322, 35.13564], [135.33744, 35.14409], [135.34096, 35.14966], [135.32706, 35.14927], [135.32403, 35.1466], [135.31533, 35.14626], [135.29375, 35.14157], [135.27993, 35.14697], [135.2784, 35.15106], [135.28572, 35.15276], [135.29221, 35.16131], [135.28932, 35.17242], [135.28725, 35.17388], [135.28704, 35.18734], [135.28348, 35.19067], [135.28659, 35.20041], [135.29385, 35.19835], [135.29613, 35.20628], [135.29999, 35.21052], [135.2931, 35.21915], [135.29937, 35.22044], [135.28875, 35.23462], [135.29865, 35.23532], [135.30306, 35.24402], [135.31773, 35.25319], [135.32418, 35.25461], [135.31863, 35.27385], [135.3324, 35.27112], [135.33639, 35.27841], [135.34512, 35.28189], [135.3516, 35.28946], [135.35882, 35.29208], [135.36725, 35.292], [135.3698, 35.29673], [135.37928, 35.30285], [135.38461, 35.31494], [135.391, 35.31668], [135.40343, 35.32633], [135.41428, 35.32855], [135.41678, 35.33469], [135.42854, 35.3423], [135.44122, 35.3416], [135.45623, 35.34774], [135.45768, 35.34469], [135.46764, 35.34597], [135.47538, 35.34384], [135.48626, 35.34566], [135.4981, 35.34215], [135.49879, 35.34649], [135.50586, 35.34943], [135.49988, 35.35884], [135.51636, 35.3647], [135.52178, 35.36968], [135.53436, 35.37117], [135.5345, 35.37744], [135.53698, 35.37667], [135.56584, 35.37733], [135.57173, 35.37426], [135.57905, 35.37509], [135.5881, 35.36826], [135.59495, 35.37265], [135.60691, 35.37166], [135.61121, 35.36686], [135.61492, 35.37102], [135.62332, 35.36995], [135.63664, 35.36371], [135.64242, 35.36667], [135.65244, 35.35994], [135.66134, 35.35634], [135.6682, 35.35707], [135.67711, 35.34984], [135.70099, 35.34369], [135.71072, 35.348], [135.71334, 35.35356], [135.71894, 35.3553], [135.73148, 35.35055], [135.74062, 35.35395], [135.74414, 35.35894], [135.75982, 35.35318], [135.76879, 35.35601], [135.76407, 35.34456], [135.78082, 35.34056], [135.79087, 35.3238], [135.79519, 35.32124], [135.78769, 35.30797], [135.77748, 35.30512], [135.77768, 35.29449], [135.77996, 35.28751], [135.77426, 35.28411], [135.7661, 35.28954], [135.74833, 35.28667], [135.73628, 35.28771], [135.72921, 35.28377], [135.73153, 35.27778], [135.72567, 35.27171], [135.72735, 35.26777], [135.71757, 35.26532], [135.70375, 35.25755], [135.68942, 35.25521], [135.65551, 35.26335], [135.65192, 35.25997], [135.64001, 35.25804], [135.62887, 35.24537], [135.62961, 35.23591], [135.62018, 35.23317], [135.6192, 35.2255], [135.60902, 35.22846], [135.59109, 35.2205], [135.58978, 35.21656], [135.59668, 35.21212], [135.59654, 35.20255], [135.57861, 35.18014], [135.57234, 35.16577], [135.56163, 35.15656], [135.56238, 35.14823], [135.55901, 35.13693], [135.56792, 35.12759], [135.57529, 35.13252], [135.57761, 35.12769], [135.58635, 35.12707], [135.59554, 35.12888], [135.59097, 35.12417], [135.59226, 35.11678], [135.59731, 35.11006], [135.6039, 35.11226], [135.61202, 35.10491], [135.61648, 35.10388], [135.61456, 35.09738], [135.60516, 35.09266], [135.59792, 35.09435], [135.59205, 35.08477]]]}}, {"type": "Feature", "properties": {"region": "中丹西", "prefecture": "京都府"}, "geometry": {"type": "Polygon", "coordinates": [[[135.15943, 35.45536], [135.1726, 35.44881], [135.16677, 35.44185], [135.17102, 35.4369], [135.16881, 35.43061], [135.17449, 35.42819], [135.1802, 35.43073], [135.19127, 35.43093], [135.20471, 35.42456], [135.20349, 35.41443], [135.21462, 35.41268], [135.22089, 35.40611], [135.22185, 35.40172], [135.22916, 35.39628], [135.2281, 35.39235], [135.21957, 35.3919], [135.21664, 35.3948], [135.20963, 35.3941], [135.20311, 35.38326], [135.20398, 35.37288], [135.19791, 35.37118], [135.19314, 35.37473], [135.18866, 35.37063], [135.18346, 35.3731], [135.17452, 35.37306], [135.17383, 35.36942], [135.18891, 35.36019], [135.18622, 35.35471], [135.17968, 35.35294], [135.17283, 35.34525], [135.18412, 35.33939], [135.18928, 35.33899], [135.19347, 35.32132], [135.18527, 35.31122], [135.19743, 35.30833], [135.20087, 35.30097], [135.20056, 35.28855], [135.20257, 35.28428], [135.2167, 35.27688], [135.22046, 35.27753], [135.2312, 35.27147], [135.23859, 35.26488], [135.24667, 35.26385], [135.2582, 35.26876], [135.27225, 35.27168], [135.28066, 35.26757], [135.29193, 35.26541], [135.2942, 35.26769], [135.31168, 35.26947], [135.31863, 35.27385], [135.32418, 35.25461], [135.31773, 35.25319], [135.30306, 35.24402], [135.29865, 35.23532], [135.28875, 35.23462], [135.29937, 35.22044], [135.2931, 35.21915], [135.29999, 35.21052], [135.29613, 35.20628], [135.29385, 35.19835], [135.28659, 35.20041], [135.28348, 35.19067], [135.28704, 35.18734], [135.28725, 35.17388], [135.28932, 35.17242], [135.28496, 35.17118], [135.2741, 35.17723], [135.26616, 35.17552], [135.25006, 35.17803], [135.23753, 35.17633], [135.23203, 35.17746], [135.22857, 35.16578], [135.21646, 35.16163], [135.20663, 35.16061], [135.19295, 35.17213], [135.18687, 35.17317], [135.19014, 35.18319], [135.18671, 35.19022], [135.20013, 35.19552], [135.19706, 35.20302], [135.19181, 35.20424], [135.18207, 35.21598], [135.17513, 35.2146], [135.17097, 35.22027], [135.16515, 35.2195], [135.15469, 35.2267], [135.16182, 35.23123], [135.16703, 35.24274], [135.16121, 35.2537], [135.16198, 35.25782], [135.15725, 35.26123], [135.14701, 35.264], [135.14198, 35.26228], [135.13479, 35.26499], [135.12893, 35.26072], [135.10932, 35.26629], [135.09907, 35.2589], [135.09465, 35.26002], [135.08542, 35.25319], [135.0829, 35.24638], [135.07474, 35.24325], [135.06787, 35.23735], [135.06434, 35.24644], [135.0558, 35.25946], [135.05695, 35.26431], [135.04959, 35.26196], [135.04211, 35.26408], [135.03577, 35.26257], [135.00941, 35.27088], [135.01191, 35.28051], [135.00732, 35.28558], [134.99286, 35.28905], [134.98644, 35.29259], [134.96005, 35.29791], [134.94712, 35.30393], [134.94601, 35.30715], [134.93424, 35.30775], [134.9247, 35.31166], [134.92132, 35.31741], [134.92632, 35.32201], [134.92476, 35.32672], [134.92806, 35.33024], [134.92558, 35.33668], [134.91721, 35.34016], [134.91887, 35.35012], [134.92347, 35.35424], [134.91894, 35.36444], [134.92683, 35.37746], [134.92651, 35.38573], [134.92298, 35.39106], [134.93228, 35.40595], [134.94641, 35.41332], [134.95493, 35.40848], [134.95893, 35.40911], [134.97095, 35.39895], [134.98076, 35.39837], [134.98861, 35.39283], [134.99055, 35.38571], [135.00197, 35.38705], [135.00538, 35.39065], [135.01924, 35.39412], [135.02359, 35.40104], [135.02972, 35.40558], [135.03003, 35.4101], [135.04917, 35.40774], [135.04944, 35.42032], [135.04703, 35.4239], [135.04938, 35.44014], [135.05182, 35.44249], [135.04985, 35.45072], [135.05917, 35.45216], [135.06568, 35.44652], [135.08039, 35.4435], [135.09436, 35.44377], [135.10698, 35.45071], [135.10571, 35.45786], [135.11021, 35.46365], [135.12482, 35.46973], [135.14466, 35.46559], [135.14952, 35.45897], [135.15943, 35.45536]]]}}, {"type": "Feature", "properties": {"region": "中丹東", "prefecture": "京都府"}, "geometry": {"type": "MultiPolygon", "coordinates": [[[[135.48626, 35.34566], [135.47538, 35.34384], [135.46764, 35.34597], [135.45768, 35.34469], [135.45623, 35.34774], [135.44122, 35.3416], [135.42854, 35.3423], [135.41678, 35.33469], [135.41428, 35.32855], [135.40343, 35.32633], [135.391, 35.31668], [135.38461, 35.31494], [135.37928, 35.30285], [135.3698, 35.29673], [135.36725, 35.292], [135.35882, 35.29208], [135.3516, 35.28946], [135.34512, 35.28189], [135.33639, 35.27841], [135.3324, 35.27112], [135.31863, 35.27385], [135.31168, 35.26947], [135.2942, 35.26769], [135.29193, 35.26541], [135.28066, 35.26757], [135.27225, 35.27168], [135.2582, 35.26876], [135.24667, 35.26385], [135.23859, 35.26488], [135.2312, 35.27147], [135.22046, 35.27753], [135.2167, 35.27688], [135.20257, 35.28428], [135.20056, 35.28855], [135.20087, 35.30097], [135.19743, 35.30833], [135.18527, 35.31122], [135.19347, 35.32132], [135.18928, 35.33899], [135.18412, 35.33939], [135.17283, 35.34525], [135.17968, 35.35294], [135.18622, 35.35471], [135.18891, 35.36019], [135.17383, 35.36942], [135.17452, 35.37306], [135.18346, 35.3731], [135.18866, 35.37063], [135.19314, 35.37473], [135.19791, 35.37118], [135.20398, 35.37288], [135.20311, 35.38326], [135.20963, 35.3941], [135.21664, 35.3948], [135.21957, 35.3919], [135.2281, 35.39235], [135.22916, 35.39628], [135.22185, 35.40172], [135.22089, 35.40611], [135.21462, 35.41268], [135.20349, 35.41443], [135.20471, 35.42456], [135.19127, 35.43093], [135.1802, 35.43073], [135.17449, 35.42819], [135.16881, 35.43061], [135.17102, 35.4369], [135.16677, 35.44185], [135.1726, 35.44881], [135.15943, 35.45536], [135.16108, 35.45719], [135.17252, 35.45642], [135.18479, 35.46243], [135.18596, 35.46989], [135.19398, 35.47408], [135.2011, 35.48113], [135.20101, 35.48996], [135.20946, 35.49319], [135.21881, 35.49296], [135.22128, 35.50074], [135.23415, 35.51115], [135.24173, 35.50733], [135.25416, 35.51049], [135.26034, 35.50652], [135.2658, 35.49822], [135.27367, 35.49217], [135.2839, 35.48979], [135.28771, 35.4996], [135.28865, 35.51625], [135.31058, 35.51228], [135.32345, 35.52565], [135.32678, 35.51813], [135.33144, 35.51666], [135.33464, 35.50582], [135.33202, 35.49504], [135.32293, 35.48662], [135.32548, 35.48281], [135.31678, 35.4796], [135.32197, 35.47626], [135.3152, 35.47143], [135.31938, 35.46912], [135.3148, 35.45993], [135.31091, 35.45807], [135.31337, 35.45243], [135.32173, 35.45244], [135.32046, 35.45641], [135.32592, 35.45659], [135.3263, 35.46486], [135.33646, 35.47252], [135.34751, 35.47526], [135.3467, 35.48247], [135.351, 35.49157], [135.35456, 35.48847], [135.36398, 35.48813], [135.37494, 35.49171], [135.38206, 35.48586], [135.37161, 35.47705], [135.38324, 35.47817], [135.39186, 35.48284], [135.39407, 35.47758], [135.39822, 35.47889], [135.39491, 35.48446], [135.39793, 35.49639], [135.40086, 35.50048], [135.39408, 35.49976], [135.39105, 35.50875], [135.39585, 35.5126], [135.3941, 35.5172], [135.38889, 35.51642], [135.38473, 35.5117], [135.38359, 35.50397], [135.37979, 35.50245], [135.37267, 35.50621], [135.35489, 35.50246], [135.34349, 35.50411], [135.34735, 35.51006], [135.34395, 35.5157], [135.34911, 35.52108], [135.3391, 35.52363], [135.33633, 35.53212], [135.33865, 35.5475], [135.34299, 35.55194], [135.34383, 35.54495], [135.35191, 35.5443], [135.35736, 35.54946], [135.37029, 35.55348], [135.37937, 35.56204], [135.39007, 35.55654], [135.39647, 35.55867], [135.39986, 35.5632], [135.4038, 35.56176], [135.41319, 35.57024], [135.42706, 35.56671], [135.42546, 35.57487], [135.43557, 35.58204], [135.43587, 35.59011], [135.45012, 35.59466], [135.46275, 35.60371], [135.46424, 35.60019], [135.45708, 35.59194], [135.45182, 35.59019], [135.45611, 35.58478], [135.44785, 35.57824], [135.45183, 35.56772], [135.45718, 35.571], [135.46511, 35.5712], [135.47407, 35.55685], [135.4866, 35.55794], [135.46684, 35.55191], [135.46048, 35.54846], [135.46029, 35.54387], [135.45441, 35.53796], [135.44986, 35.52725], [135.44993, 35.5208], [135.46677, 35.50931], [135.47622, 35.50549], [135.47263, 35.5013], [135.4763, 35.48968], [135.47037, 35.48902], [135.46959, 35.48479], [135.4624, 35.47869], [135.45838, 35.46818], [135.46712, 35.46043], [135.47032, 35.45449], [135.48086, 35.44808], [135.48612, 35.44857], [135.48812, 35.43922], [135.49779, 35.43755], [135.50049, 35.43255], [135.49547, 35.42926], [135.49615, 35.42507], [135.50205, 35.42003], [135.50997, 35.42429], [135.52081, 35.42293], [135.52702, 35.41842], [135.52997, 35.40842], [135.5252, 35.40308], [135.53164, 35.3928], [135.52878, 35.39072], [135.52754, 35.38022], [135.5345, 35.37744], [135.53436, 35.37117], [135.52178, 35.36968], [135.51636, 35.3647], [135.49988, 35.35884], [135.50586, 35.34943], [135.49879, 35.34649], [135.4981, 35.34215], [135.48626, 35.34566]]], [[[135.33829, 35.49358], [135.34239, 35.49752], [135.34786, 35.49693], [135.33829, 35.49358]]], [[[135.42522, 35.68742], [135.42769, 35.68139], [135.42348, 35.6764], [135.4213, 35.68021], [135.42522, 35.68742]]], [[[135.47658, 35.596], [135.47891, 35.60515], [135.48144, 35.59448], [135.47658, 35.596]]]]}}, {"type": "Feature", "properties": {"region": "丹後", "prefecture": "京都府"}, "geometry": {"type": "Polygon", "coordinates": [[[135.11021, 35.46365], [135.10571, 35.45786], [135.10698, 35.45071], [135.09436, 35.44377], [135.08039, 35.4435], [135.06568, 35.44652], [135.05917, 35.45216], [135.04985, 35.45072], [135.04537, 35.45507], [135.04104, 35.4733], [135.03535, 35.475], [135.03566, 35.48023], [135.04013, 35.48166], [135.04216, 35.49406], [135.03245, 35.49762], [135.04516, 35.50869], [135.04296, 35.52001], [135.03619, 35.53061], [135.0371, 35.53726], [135.03552, 35.5398], [135.01751, 35.53796], [135.00801, 35.53363], [135.00513, 35.53561], [134.99342, 35.53431], [134.98825, 35.52954], [134.98204, 35.52845], [134.97926, 35.52397], [134.97479, 35.52508], [134.96534, 35.5199], [134.96344, 35.51452], [134.95821, 35.51297], [134.95502, 35.51607], [134.93006, 35.51168], [134.92336, 35.51631], [134.92315, 35.52169], [134.91513, 35.52771], [134.91924, 35.53792], [134.91481, 35.54494], [134.90313, 35.5494], [134.9017, 35.55544], [134.88703, 35.56042], [134.88105, 35.56403], [134.87561, 35.57408], [134.86799, 35.57596], [134.86876, 35.58001], [134.85612, 35.58655], [134.85517, 35.59288], [134.86552, 35.59937], [134.86648, 35.61352], [134.87068, 35.61483], [134.8739, 35.62116], [134.87126, 35.63645], [134.86571, 35.63941], [134.86769, 35.64968], [134.86445, 35.65124], [134.86774, 35.6579], [134.8784, 35.66082], [134.88513, 35.65695], [134.8829, 35.64786], [134.89239, 35.64879], [134.89519, 35.64542], [134.89992, 35.64854], [134.90934, 35.64526], [134.92313, 35.64632], [134.93892, 35.65107], [134.96318, 35.66229], [134.96709, 35.66943], [134.9654, 35.67479], [134.97278, 35.67636], [134.97394, 35.68305], [134.9787, 35.68169], [134.98562, 35.69198], [134.99931, 35.69095], [135.00285, 35.69378], [135.01867, 35.69243], [135.02557, 35.68951], [135.02985, 35.69176], [135.03205, 35.69894], [135.03708, 35.70239], [135.04327, 35.69986], [135.04495, 35.70269], [135.06171, 35.70788], [135.06862, 35.7184], [135.07438, 35.71808], [135.08407, 35.7246], [135.08787, 35.7315], [135.08463, 35.73936], [135.09287, 35.73811], [135.09438, 35.74292], [135.09869, 35.7411], [135.11091, 35.74538], [135.12421, 35.74564], [135.13533, 35.75301], [135.13846, 35.75761], [135.14288, 35.75062], [135.14675, 35.74989], [135.15581, 35.75399], [135.16248, 35.754], [135.17566, 35.76078], [135.18278, 35.7604], [135.19382, 35.7677], [135.20704, 35.76393], [135.22201, 35.77187], [135.22112, 35.77884], [135.23311, 35.76936], [135.24693, 35.75713], [135.25513, 35.75901], [135.25112, 35.75053], [135.25718, 35.74438], [135.26602, 35.74485], [135.27491, 35.74174], [135.27305, 35.73272], [135.27873, 35.73169], [135.2876, 35.7259], [135.28955, 35.7186], [135.28634, 35.70499], [135.29467, 35.70499], [135.29971, 35.7003], [135.30652, 35.69921], [135.30866, 35.69376], [135.30501, 35.6931], [135.30446, 35.68687], [135.29937, 35.67958], [135.29849, 35.67377], [135.30342, 35.66314], [135.29316, 35.66049], [135.29081, 35.66504], [135.29438, 35.67413], [135.28677, 35.6754], [135.28313, 35.67027], [135.27425, 35.6713], [135.2744, 35.66726], [135.26521, 35.6649], [135.26336, 35.66058], [135.25288, 35.64898], [135.24563, 35.62939], [135.24452, 35.62034], [135.23492, 35.61593], [135.23371, 35.61175], [135.22538, 35.60334], [135.21401, 35.59796], [135.20579, 35.58344], [135.19159, 35.56944], [135.18659, 35.55798], [135.1874, 35.54776], [135.19252, 35.54018], [135.1988, 35.53693], [135.20671, 35.5404], [135.21087, 35.54793], [135.20863, 35.55358], [135.20399, 35.55527], [135.20763, 35.56277], [135.22537, 35.56793], [135.22971, 35.57997], [135.22781, 35.58527], [135.23783, 35.58161], [135.25615, 35.5985], [135.25627, 35.58821], [135.25055, 35.58933], [135.24707, 35.58154], [135.2526, 35.57757], [135.25004, 35.57418], [135.25406, 35.56798], [135.26801, 35.56749], [135.27483, 35.56016], [135.2611, 35.5537], [135.24913, 35.55706], [135.24937, 35.56155], [135.24247, 35.56021], [135.23653, 35.55001], [135.24295, 35.53691], [135.25495, 35.5341], [135.2693, 35.53334], [135.27169, 35.52524], [135.28865, 35.51625], [135.28771, 35.4996], [135.2839, 35.48979], [135.27367, 35.49217], [135.2658, 35.49822], [135.26034, 35.50652], [135.25416, 35.51049], [135.24173, 35.50733], [135.23415, 35.51115], [135.22128, 35.50074], [135.21881, 35.49296], [135.20946, 35.49319], [135.20101, 35.48996], [135.2011, 35.48113], [135.19398, 35.47408], [135.18596, 35.46989], [135.18479, 35.46243], [135.17252, 35.45642], [135.16108, 35.45719], [135.15943, 35.45536], [135.14952, 35.45897], [135.14466, 35.46559], [135.12482, 35.46973], [135.11021, 35.46365]]]}}]}